{"type":"FeatureCollection","features":[{"type":"Feature","id":1,"geometry":{"type":"Polygon","coordinates":[[[-77.439814323341238,37.544783186258115],[-77.439962334259022,37.544636006703925],[-77.439885875051928,37.54458575850807],[-77.439744591617313,37.54473958847921],[-77.439814323341238,37.544783186258115]]]},"properties":{"OBJECTID":1,"Address":"200 E Broad Street","ID":null,"Address_1":"200 E Broad Street","Name":null,"Type__Business_or_Residences_":"Commercial","Business_Type":"Planters Peanut Shoppe","Identification":"Commercial","ID2level":"Shop","Notes":null,"Shape_Length":74.0865188701638,"Shape_Area":278.01935652539055}},{"type":"Feature","id":2,"geometry":{"type":"Polygon","coordinates":[[[-77.439814323341238,37.544783186258115],[-77.439679575150308,37.544698939408875],[-77.439630382507033,37.54475313840183],[-77.43976390449761,37.544833677911519],[-77.439814323341238,37.544783186258115]]]},"properties":{"OBJECTID":2,"Address":"301 N 2nd Street","ID":null,"Address_1":"301 N 2nd Street","Name":null,"Type__Business_or_Residences_":"Commercial","Business_Type":"United Surplus Whse","Identification":"Commercial","ID2level":"Shop","Notes":null,"Shape_Length":56.195478488397541,"Shape_Area":173.87466218215297}},{"type":"Feature","id":3,"geometry":{"type":"Polygon","coordinates":[[[-77.43976390449761,37.544833677911519],[-77.439630382507033,37.54475313840183],[-77.439588234452231,37.544801872233741],[-77.439718549457226,37.544878431621811],[-77.43976390449761,37.544833677911519]]]},"properties":{"OBJECTID":3,"Address":"303 N 2nd Street","ID":null,"Address_1":"303 N 2nd Street","Name":null,"Type__Business_or_Residences_":"Business ","Business_Type":"Hayes T R watch repr","Identification":"Commercial","ID2level":"Services","Notes":"repr = repair","Shape_Length":53.087777789250808,"Shape_Area":150.08760661884244}},{"type":"Feature","id":4,"geometry":{"type":"Polygon","coordinates":[[[-77.439718549457226,37.544878431621811],[-77.439588234452231,37.544801872233741],[-77.439556571533387,37.544839218529738],[-77.439682438081121,37.54491743742782],[-77.439718549457226,37.544878431621811]]]},"properties":{"OBJECTID":4,"Address":"307 N 2nd Street","ID":null,"Address_1":"307 N 2nd Street","Name":null,"Type__Business_or_Residences_":"Commercial","Business_Type":"Happy Soul Kitchen ","Identification":"Commercial","ID2level":"Resturant","Notes":null,"Shape_Length":48.968602898398181,"Shape_Area":117.41436253793805}},{"type":"Feature","id":5,"geometry":{"type":"Polygon","coordinates":[[[-77.439652103770598,37.544958285809635],[-77.439380435262379,37.544788414200717],[-77.439335817738851,37.544832907965727],[-77.439612922851168,37.544994161227393],[-77.439652103770598,37.544958285809635]]]},"properties":{"OBJECTID":5,"Address":"309 N 2nd Street","ID":null,"Address_1":"309 N 2nd Street","Name":null,"Type__Business_or_Residences_":"Commercial","Business_Type":"Globe Tailors ","Identification":"Commercial","ID2level":"Services","Notes":null,"Shape_Length":91.422294145341169,"Shape_Area":280.74844128080127}},{"type":"Feature","id":6,"geometry":{"type":"Polygon","coordinates":[[[-77.439612922851168,37.544994161227393],[-77.439335817738851,37.544832907965727],[-77.439298489145528,37.544875208677489],[-77.439573139162178,37.545031811558424],[-77.439612922851168,37.544994161227393]]]},"properties":{"OBJECTID":6,"Address":"311 N 2nd Street","ID":null,"Address_1":"311 N 2nd Street","Name":null,"Type__Business_or_Residences_":"Commercial","Business_Type":"Budd's Shoes","Identification":"Commercial","ID2level":"Shop","Notes":null,"Shape_Length":90.067124145868632,"Shape_Area":268.13494041533181}},{"type":"Feature","id":7,"geometry":{"type":"Polygon","coordinates":[[[-77.439573139162178,37.545031811558424],[-77.439378178694369,37.54492064683749],[-77.439349248450654,37.544948542912373],[-77.439545059623029,37.545060740355872],[-77.439573139162178,37.545031811558424]]]},"properties":{"OBJECTID":7,"Address":"313 N 2nd Street","ID":null,"Address_1":"313 N 2nd Street","Name":null,"Type__Business_or_Residences_":"Business ","Business_Type":"Fisher Optical Laboratory","Identification":"Commercial","ID2level":"Medical","Notes":"Price R Morrell is an optician here, his name is right below","Shape_Length":63.821785820607509,"Shape_Area":136.51891423292855}},{"type":"Feature","id":8,"geometry":{"type":"Polygon","coordinates":[[[-77.439545059623029,37.545060740355872],[-77.439405762363506,37.544980924739406],[-77.439376018246136,37.545010433329409],[-77.43951017893886,37.545092796635508],[-77.439545059623029,37.545060740355872]]]},"properties":{"OBJECTID":8,"Address":"315 N 2nd Street","ID":null,"Address_1":"315 N 2nd Street","Name":null,"Type__Business_or_Residences_":"Commercial","Business_Type":"Beauty World Salon","Identification":"Commercial","ID2level":"Beauty","Notes":null,"Shape_Length":49.267876320245918,"Shape_Area":106.7328152435893}},{"type":"Feature","id":9,"geometry":{"type":"Polygon","coordinates":[[[-77.43951017893886,37.545092796635508],[-77.439376018246136,37.545010433329409],[-77.439343698658831,37.545042271681801],[-77.439479260723431,37.545122653471743],[-77.43951017893886,37.545092796635508]]]},"properties":{"OBJECTID":9,"Address":"317 N 2nd Street","ID":null,"Address_1":"317 N 2nd Street","Name":null,"Type__Business_or_Residences_":"Vacant","Business_Type":"Vacant","Identification":"Vacant","ID2level":"Vacant","Notes":null,"Shape_Length":48.894159650349735,"Shape_Area":105.23266274890884}},{"type":"Feature","id":10,"geometry":{"type":"Polygon","coordinates":[[[-77.439479260723431,37.545122653471743],[-77.439343698658831,37.545042271681801],[-77.439313703911509,37.545071548765954],[-77.439451590816034,37.545150109300401],[-77.439479260723431,37.545122653471743]]]},"properties":{"OBJECTID":10,"Address":"319 N 2nd Street","ID":null,"Address_1":"319 N 2nd Street","Name":null,"Type__Business_or_Residences_":"Commercial","Business_Type":"Miller Kenneth M watch repr, Raines J H Jeweler","Identification":"Commercial","ID2level":"Services / Shop","Notes":"Two Businesses do some here","Shape_Length":47.975460156141857,"Shape_Area":96.428245677413429}},{"type":"Feature","id":11,"geometry":{"type":"Polygon","coordinates":[[[-77.439451590816034,37.545150109300401],[-77.439313703911509,37.545071548765954],[-77.439284988365131,37.545100301622043],[-77.439421011265452,37.545181136340425],[-77.439451590816034,37.545150109300401]]]},"properties":{"OBJECTID":11,"Address":"321 N 2nd Street","ID":null,"Address_1":"321 N 2nd Street","Name":null,"Type__Business_or_Residences_":"Commercial","Business_Type":"Ward's Mrs Shoe Service ","Identification":"Commercial","ID2level":"Services","Notes":null,"Shape_Length":48.502357556241392,"Shape_Area":100.90898351658723}},{"type":"Feature","id":12,"geometry":{"type":"Polygon","coordinates":[[[-77.439421011265452,37.545181136340425],[-77.439284988365131,37.545100301622043],[-77.439251913294683,37.545133177684939],[-77.439393470715473,37.545211375619374],[-77.439421011265452,37.545181136340425]]]},"properties":{"OBJECTID":12,"Address":"323 N 2nd Street","ID":null,"Address_1":"323 N 2nd Street","Name":null,"Type__Business_or_Residences_":"Business ","Business_Type":"Cole & Hite Sanitary Deluxe Barber Shop","Identification":"Commercial","ID2level":"Beauty","Notes":null,"Shape_Length":49.269970747942523,"Shape_Area":106.12053533981775}},{"type":"Feature","id":13,"geometry":{"type":"Polygon","coordinates":[[[-77.439393470715473,37.545211375619374],[-77.439251913294683,37.545133177684939],[-77.439222407230858,37.545163509575886],[-77.439363489442854,37.545243364882815],[-77.439393470715473,37.545211375619374]]]},"properties":{"OBJECTID":13,"Address":"325 N 2nd Street","ID":"c","Address_1":"325 N 2nd Street","Name":null,"Type__Business_or_Residences_":"Commercial","Business_Type":"Vaughan's Cafe Restaurant","Identification":"Commercial","ID2level":"Resturant","Notes":null,"Shape_Length":49.47586793907098,"Shape_Area":105.56244083187141}},{"type":"Feature","id":14,"geometry":{"type":"Polygon","coordinates":[[[-77.439363489442854,37.545243364882815],[-77.439222407230858,37.545163509575886],[-77.439187922703724,37.545199965378487],[-77.43932506939646,37.54528356351495],[-77.439363489442854,37.545243364882815]]]},"properties":{"OBJECTID":14,"Address":"327 N 2nd Street","ID":null,"Address_1":"327 N 2nd Street","Name":null,"Type__Business_or_Residences_":"Vacant","Business_Type":"Vacant","Identification":"Vacant","ID2level":"Vacant","Notes":null,"Shape_Length":52.033230819106777,"Shape_Area":129.89489300181208}},{"type":"Feature","id":15,"geometry":{"type":"Polygon","coordinates":[[[-77.439030956480877,37.545317819834935],[-77.438957000878489,37.545386554649163],[-77.439033004639725,37.545431104324727],[-77.438908633786966,37.545566060875913],[-77.439018567814784,37.545630818281438],[-77.439209309794009,37.545422470458931],[-77.439030956480877,37.545317819834935]]]},"properties":{"OBJECTID":15,"Address":"201 E Marshall Street","ID":null,"Address_1":"201 E Marshall Street","Name":null,"Type__Business_or_Residences_":"Vacant","Business_Type":"Vacant","Identification":"Vacant","ID2level":"Vacant","Notes":null,"Shape_Length":122.76520643873387,"Shape_Area":675.85411785271674}},{"type":"Feature","id":16,"geometry":{"type":"Polygon","coordinates":[[[-77.439018567814784,37.545630818281438],[-77.438834749151468,37.545521687205948],[-77.438778388850551,37.545573248152969],[-77.438678674955682,37.545515303338263],[-77.438610547622858,37.545586506615415],[-77.438899779991516,37.545756903466653],[-77.439018567814784,37.545630818281438]]]},"properties":{"OBJECTID":16,"Address":"413 N 2nd Street","ID":null,"Address_1":"413 N 2nd Street","Name":null,"Type__Business_or_Residences_":"Commercial","Business_Type":"Sills Barber Shop","Identification":"Commercial","ID2level":"Beauty","Notes":null,"Shape_Length":123.66189297511077,"Shape_Area":752.02377212904923}},{"type":"Feature","id":17,"geometry":{"type":"Polygon","coordinates":[[[-77.438899779991516,37.545756903466653],[-77.438610547622858,37.545586506615415],[-77.438586837489254,37.545610932379333],[-77.438512691444004,37.545572757415343],[-77.43839563557259,37.545684718166157],[-77.438763846024401,37.545898008223183],[-77.438899779991516,37.545756903466653]]]},"properties":{"OBJECTID":17,"Address":"415 N 2nd Street","ID":null,"Address_1":"415 N 2nd Street","Name":null,"Type__Business_or_Residences_":"Business ","Business_Type":"Dougless Willard H Jr. lwyr","Identification":"Commercial","ID2level":"Economic & Legal Services","Notes":"prob his office","Shape_Length":150.39165896085069,"Shape_Area":1217.726139963072}},{"type":"Feature","id":18,"geometry":{"type":"Polygon","coordinates":[[[-77.438533548528284,37.546142730999442],[-77.438731569556239,37.545935524908352],[-77.438670191266141,37.545897067349998],[-77.43847206244034,37.546105395327793],[-77.438533548528284,37.546142730999442]]]},"properties":{"OBJECTID":18,"Address":"201 E Clay Street","ID":null,"Address_1":"201 E Clay Street","Name":null,"Type__Business_or_Residences_":"Residential","Business_Type":"Pettis Mildred T","Identification":"Residential","ID2level":"Residential","Notes":null,"Shape_Length":90.463322125037649,"Shape_Area":316.8081841493111}},{"type":"Feature","id":19,"geometry":{"type":"Polygon","coordinates":[[[-77.43837767465682,37.546294607646466],[-77.438164001383313,37.546163987822801],[-77.437994822564164,37.546335443165596],[-77.438217265191454,37.546465002166862],[-77.43837767465682,37.546294607646466]]]},"properties":{"OBJECTID":19,"Address":"200 E Clay Street","ID":null,"Address_1":"200 E Clay Street","Name":null,"Type__Business_or_Residences_":"Commercial","Business_Type":"Hotel Harris","Identification":"Commercial","ID2level":"Hotel","Notes":null,"Shape_Length":121.17793888350866,"Shape_Area":917.60094059307721}},{"type":"Feature","id":20,"geometry":{"type":"Polygon","coordinates":[[[-77.437994822564164,37.546335443165596],[-77.437943516185058,37.546389871733979],[-77.438164001383313,37.546521964068305],[-77.438217265191454,37.546465002166862],[-77.437994822564164,37.546335443165596]]]},"properties":{"OBJECTID":20,"Address":"511 N 2nd Street","ID":null,"Address_1":"511 N 2nd Street","Name":null,"Type__Business_or_Residences_":"Residential","Business_Type":"Hilford Curtis","Identification":"Residential","ID2level":"Residential","Notes":null,"Shape_Length":80.984997606898631,"Shape_Area":299.69189543704692}},{"type":"Feature","id":21,"geometry":{"type":"Polygon","coordinates":[[[-77.437943516185058,37.546389871733979],[-77.437905116799911,37.546430628854743],[-77.438122505505405,37.546564685465889],[-77.438164001383313,37.546521964068305],[-77.437943516185058,37.546389871733979]]]},"properties":{"OBJECTID":21,"Address":"511 1/2 N 2nd Street","ID":null,"Address_1":"511 1/2 N 2nd Street","Name":null,"Type__Business_or_Residences_":"Commercial","Business_Type":"Gloss Shop The","Identification":"Commercial","ID2level":"Shop","Notes":null,"Shape_Length":76.134283047154454,"Shape_Area":225.91375250672834}},{"type":"Feature","id":22,"geometry":{"type":"Polygon","coordinates":[[[-77.437905116799911,37.546430628854743],[-77.437866717414778,37.546468440138213],[-77.438087203511358,37.546600041602439],[-77.438122505505405,37.546564685465889],[-77.437905116799911,37.546430628854743]]]},"properties":{"OBJECTID":22,"Address":"513 N 2nd Street","ID":null,"Address_1":"513 N 2nd Street","Name":null,"Type__Business_or_Residences_":"Vacant","Business_Type":"Vacant","Identification":"Vacant","ID2level":"Vacant","Notes":null,"Shape_Length":74.526578265850489,"Shape_Area":201.68974332061094}},{"type":"Feature","id":23,"geometry":{"type":"Polygon","coordinates":[[[-77.438040133587108,37.546643745128691],[-77.437715598326108,37.546436030467845],[-77.437651693075125,37.546502254326604],[-77.43797881817909,37.546705126314485],[-77.438040133587108,37.546643745128691]]]},"properties":{"OBJECTID":23,"Address":"515 N 2nd Street","ID":null,"Address_1":"515 N 2nd Street","Name":null,"Type__Business_or_Residences_":"Commercial","Business_Type":"Lomax's Hair Cutting & Hair Styling","Identification":"Commercial","ID2level":"Beauty","Notes":null,"Shape_Length":115.36244216547288,"Shape_Area":525.81400265089337}},{"type":"Feature","id":24,"geometry":{"type":"Polygon","coordinates":[[[-77.43797881817909,37.546705126314485],[-77.437651693075125,37.546502254326604],[-77.437596064901143,37.546561248211184],[-77.437926794046035,37.54675766861493],[-77.43797881817909,37.546705126314485]]]},"properties":{"OBJECTID":24,"Address":"517 N 2nd Street","ID":null,"Address_1":"517 N 2nd Street","Name":null,"Type__Business_or_Residences_":"Commercial","Business_Type":"Boisseau's Pool Room, Boisseau's Snack Bar","Identification":"Commercial","ID2level":"Community & Athletic Center / Shop","Notes":"Social Use?","Shape_Length":111.95277245567877,"Shape_Area":454.66162967691832}},{"type":"Feature","id":25,"geometry":{"type":"Polygon","coordinates":[[[-77.437926794046035,37.54675766861493],[-77.437596064901143,37.546561248211184],[-77.437545898484089,37.546613790613044],[-77.437876007791445,37.546809228707069],[-77.437926794046035,37.54675766861493]]]},"properties":{"OBJECTID":25,"Address":"519 N 2nd Street","ID":null,"Address_1":"519 N 2nd Street","Name":null,"Type__Business_or_Residences_":"Commercial","Business_Type":"Perry's Restraurant ","Identification":"Commercial","ID2level":"Resturant","Notes":null,"Shape_Length":110.30001187894534,"Shape_Area":423.38245596418903}},{"type":"Feature","id":26,"geometry":{"type":"Polygon","coordinates":[[[-77.437876007791445,37.546809228707069],[-77.437545898484089,37.546613790613044],[-77.437497589783064,37.546662895727906],[-77.437825221536855,37.546862261663328],[-77.437876007791445,37.546809228707069]]]},"properties":{"OBJECTID":26,"Address":"521 N 2nd Street","ID":null,"Address_1":"521 N 2nd Street","Name":null,"Type__Business_or_Residences_":"Commercial","Business_Type":"B & B Shoe Shine Parlor ","Identification":"Commercial","ID2level":"Services","Notes":null,"Shape_Length":109.93032110133885,"Shape_Area":415.37024375301314}},{"type":"Feature","id":27,"geometry":{"type":"Polygon","coordinates":[[[-77.437497589783064,37.546662895727906],[-77.437452377574814,37.546711509367981],[-77.437793016035599,37.546909893715736],[-77.437834034908121,37.546867827771152],[-77.437497589783064,37.546662895727906]]]},"properties":{"OBJECTID":27,"Address":"523 N 2nd Street","ID":null,"Address_1":"523 N 2nd Street","Name":null,"Type__Business_or_Residences_":"Business ","Business_Type":"Deluxe Beauty Nook ","Identification":"Commercial","ID2level":"Beauty","Notes":null,"Shape_Length":110.22567926195826,"Shape_Area":375.79856754912174}},{"type":"Feature","id":28,"geometry":{"type":"Polygon","coordinates":[[[-77.437793016035599,37.546909893715736],[-77.437452377574814,37.546711509367981],[-77.437399114664984,37.546768471081108],[-77.43772984291158,37.546974711918118],[-77.437793016035599,37.546909893715736]]]},"properties":{"OBJECTID":28,"Address":"529 N 2nd Street","ID":null,"Address_1":"529 N 2nd Street","Name":null,"Type__Business_or_Residences_":"Vacant","Business_Type":"Vacant","Identification":"Vacant","ID2level":"Vacant","Notes":null,"Shape_Length":115.34701104599151,"Shape_Area":503.55488446122683}},{"type":"Feature","id":29,"geometry":{"type":"Polygon","coordinates":[[[-77.43772984291158,37.546974711918118],[-77.437399114664984,37.546768471081108],[-77.437357618787061,37.546810210878341],[-77.43769284489828,37.547014044254183],[-77.43772984291158,37.546974711918118]]]},"properties":{"OBJECTID":29,"Address":"533 N 2nd Street","ID":null,"Address_1":"533 N 2nd Street","Name":null,"Type__Business_or_Residences_":"Institutional","Business_Type":"Thunder Road Motorcycle club Of Richmond Virginia","Identification":"Institutional","ID2level":"Community & Athletic Center","Notes":"Social Use?","Shape_Length":108.21865822162025,"Shape_Area":336.73516576669073}},{"type":"Feature","id":30,"geometry":{"type":"Polygon","coordinates":[[[-77.437357618787061,37.546810210878341],[-77.437319392776772,37.546846764163959],[-77.437653004615427,37.547057662782102],[-77.43769284489828,37.547014044254183],[-77.437357618787061,37.546810210878341]]]},"properties":{"OBJECTID":30,"Address":"535 N 2nd Street","ID":null,"Address_1":"535 N 2nd Street","Name":null,"Type__Business_or_Residences_":"Residential","Business_Type":"Brown Will","Identification":"Residential","ID2level":"Residential","Notes":null,"Shape_Length":108.75345140729195,"Shape_Area":336.03157910069865}},{"type":"Feature","id":31,"geometry":{"type":"Polygon","coordinates":[[[-77.437653004615427,37.547057662782102],[-77.437417177988721,37.546908565400287],[-77.437369984096961,37.546956588439016],[-77.437612356747138,37.547099163819794],[-77.437653004615427,37.547057662782102]]]},"properties":{"OBJECTID":31,"Address":"535 1/2 N 2nd Street","ID":null,"Address_1":"535 1/2 N 2nd Street","Name":null,"Type__Business_or_Residences_":"Commercial","Business_Type":"Polly's Beauty Salon","Identification":"Commercial","ID2level":"Beauty","Notes":null,"Shape_Length":83.097866016539356,"Shape_Area":267.38977267632015}},{"type":"Feature","id":32,"geometry":{"type":"Polygon","coordinates":[[[-77.437612356747138,37.547099163819794],[-77.437481122765604,37.547021900177867],[-77.437423745571763,37.547085466179418],[-77.437550336161607,37.54716507085886],[-77.437612356747138,37.547099163819794]]]},"properties":{"OBJECTID":32,"Address":"537 N 2nd Street","ID":null,"Address_1":"537 N 2nd Street","Name":null,"Type__Business_or_Residences_":"Commercial","Business_Type":"Baker & Dyson Contractor Painting & Decoration, Cephas B A Real Estate","Identification":"Commercial","ID2level":"Services","Notes":"can also be Baker & Dyson cont pntg & dec","Shape_Length":58.702796129619671,"Shape_Area":203.61971601523794}},{"type":"Feature","id":33,"geometry":{"type":"Polygon","coordinates":[[[-77.437550336161607,37.54716507085886],[-77.437318816058365,37.547019482861089],[-77.437264588357934,37.547078052558376],[-77.437503593224108,37.547218078633847],[-77.437550336161607,37.54716507085886]]]},"properties":{"OBJECTID":33,"Address":"539 N 2nd Street","ID":null,"Address_1":"539 N 2nd Street","Name":null,"Type__Business_or_Residences_":"Business ","Business_Type":"Eggleston Hotel","Identification":"Commercial","ID2level":"Hotel","Notes":null,"Shape_Length":85.258826392370565,"Shape_Area":317.82413033349121}},{"type":"Feature","id":34,"geometry":{"type":"Polygon","coordinates":[[[-77.437400401950796,37.547155707157017],[-77.437315097033078,37.547236226265198],[-77.437420136140958,37.547300859004132],[-77.437503593224108,37.547218078633847],[-77.437400401950796,37.547155707157017]]]},"properties":{"OBJECTID":34,"Address":"203 E Leigh Street","ID":null,"Address_1":"203 E Leigh Street","Name":null,"Type__Business_or_Residences_":"Mixed Use","Business_Type":"Hotel Eggleston (side entrence), Owens Sams L","Identification":"Mixed Use","ID2level":"Hotel / Residential","Notes":"Owens lives on the rear","Shape_Length":58.889412146261108,"Shape_Area":216.61750104906932}},{"type":"Feature","id":35,"geometry":{"type":"Polygon","coordinates":[[[-77.440213751147482,37.544789203377832],[-77.440152311771939,37.544754003790523],[-77.440050046661682,37.544870915929181],[-77.440108314085961,37.544897315579753],[-77.440213751147482,37.544789203377832]]]},"properties":{"OBJECTID":35,"Address":"122 E Broad Street","ID":null,"Address_1":"122 E Broad Street","Name":null,"Type__Business_or_Residences_":"Commercial","Business_Type":"Rabow Men's Shop Inc","Identification":"Commercial","ID2level":"Shop","Notes":null,"Shape_Length":55.071938893169673,"Shape_Area":155.24185017046324}},{"type":"Feature","id":36,"geometry":{"type":"Polygon","coordinates":[[[-77.440108314085961,37.544897315579753],[-77.440050046661682,37.544870915929181],[-77.44001437276512,37.544909257919677],[-77.44006968832538,37.544937220950558],[-77.440108314085961,37.544897315579753]]]},"properties":{"OBJECTID":36,"Address":"302 N 2nd Street","ID":null,"Address_1":"302 N 2nd Street","Name":null,"Type__Business_or_Residences_":"Commercial","Business_Type":"Rabow Men's Shop Inc","Identification":"Commercial","ID2level":"Shop","Notes":"this is its storage","Shape_Length":28.525377519836219,"Shape_Area":50.508531757163105}},{"type":"Feature","id":37,"geometry":{"type":"Polygon","coordinates":[[[-77.44001437276512,37.544909257919677],[-77.439961273348672,37.544968694661172],[-77.440087607020345,37.545035270963389],[-77.44014671526773,37.544977946814193],[-77.44006968832538,37.544937220950558],[-77.44001437276512,37.544909257919677]]]},"properties":{"OBJECTID":37,"Address":"306 N 2nd Street","ID":null,"Address_1":"306 N 2nd Street","Name":null,"Type__Business_or_Residences_":"Commercial","Business_Type":"Mann Furniture Corp","Identification":"Commercial","ID2level":"Shop","Notes":null,"Shape_Length":55.117416491808321,"Shape_Area":178.09032892214915}},{"type":"Feature","id":38,"geometry":{"type":"Polygon","coordinates":[[[-77.439961273348672,37.544968694661172],[-77.439902494783013,37.54503308363941],[-77.440089535703265,37.545144063719853],[-77.440154566543313,37.54507678808433],[-77.440087607020345,37.545035270963389],[-77.439961273348672,37.544968694661172]]]},"properties":{"OBJECTID":38,"Address":"310 N 2nd Street","ID":null,"Address_1":"310 N 2nd Street","Name":null,"Type__Business_or_Residences_":"Business ","Business_Type":"Standard Drug Co Inc","Identification":"Commercial","ID2level":"Medical","Notes":null,"Shape_Length":75.415137986441721,"Shape_Area":307.79494439278375}},{"type":"Feature","id":39,"geometry":{"type":"Polygon","coordinates":[[[-77.439902494783013,37.54503308363941],[-77.439813407957956,37.545122967574237],[-77.44001199402625,37.545235164755169],[-77.440089535703265,37.545144063719853],[-77.439902494783013,37.54503308363941]]]},"properties":{"OBJECTID":39,"Address":"312 N 2nd Street","ID":null,"Address_1":"312 N 2nd Street","Name":null,"Type__Business_or_Residences_":"Commercial","Business_Type":"Mann Furniture Corp","Identification":"Commercial","ID2level":"Shop","Notes":null,"Shape_Length":84.631671004486577,"Shape_Area":418.00612426608473}},{"type":"Feature","id":40,"geometry":{"type":"Polygon","coordinates":[[[-77.439813407957956,37.545122967574237],[-77.439753555007215,37.545184565823995],[-77.439956501497903,37.545294248673649],[-77.44001199402625,37.545235164755169],[-77.439813407957956,37.545122967574237]]]},"properties":{"OBJECTID":40,"Address":"314 N 2nd Street","ID":null,"Address_1":"314 N 2nd Street","Name":null,"Type__Business_or_Residences_":"Commercial","Business_Type":"Otto's Inn","Identification":"Commercial","ID2level":"Hotel","Notes":null,"Shape_Length":75.746055706425324,"Shape_Area":289.33966507257446}},{"type":"Feature","id":41,"geometry":{"type":"Polygon","coordinates":[[[-77.439753555007215,37.545184565823995],[-77.439692908844066,37.545252764437315],[-77.439884756649406,37.545367161557664],[-77.439956501497903,37.545294248673649],[-77.439753555007215,37.545184565823995]]]},"properties":{"OBJECTID":41,"Address":"316 N 2nd Street","ID":null,"Address_1":"316 N 2nd Street","Name":null,"Type__Business_or_Residences_":"Commercial","Business_Type":"Sun Ray One Hour Cleaners Inc.","Identification":"Commercial","ID2level":"Services","Notes":null,"Shape_Length":78.762842230720139,"Shape_Area":333.59235510656498}},{"type":"Feature","id":42,"geometry":{"type":"Polygon","coordinates":[[[-77.439692908844066,37.545252764437315],[-77.439663973210457,37.545283877616711],[-77.439856217172817,37.545399531806851],[-77.439884756649406,37.545367161557664],[-77.439692908844066,37.545252764437315]]]},"properties":{"OBJECTID":42,"Address":"318 N 2nd Street","ID":null,"Address_1":"318 N 2nd Street","Name":null,"Type__Business_or_Residences_":"Commercial","Business_Type":"Metropolitan Business Servrs","Identification":"Commercial","ID2level":"Services","Notes":null,"Shape_Length":64.558157606815953,"Shape_Area":146.93766917005917}},{"type":"Feature","id":43,"geometry":{"type":"Polygon","coordinates":[[[-77.439663973210457,37.545283877616711],[-77.439633849105718,37.545315933800445],[-77.439827677696243,37.54542844550442],[-77.439856217172817,37.545399531806851],[-77.439663973210457,37.545283877616711]]]},"properties":{"OBJECTID":43,"Address":"320 N 2nd Street","ID":null,"Address_1":"320 N 2nd Street","Name":null,"Type__Business_or_Residences_":"Vacant","Business_Type":"Vacant","Identification":"Vacant","ID2level":"Vacant","Notes":null,"Shape_Length":64.372397501061641,"Shape_Area":144.27347288706466}},{"type":"Feature","id":44,"geometry":{"type":"Polygon","coordinates":[[[-77.439633849105718,37.545315933800445],[-77.43954203769043,37.545409235471517],[-77.439734033717784,37.545529543999109],[-77.439827677696243,37.54542844550442],[-77.439633849105718,37.545315933800445]]]},"properties":{"OBJECTID":44,"Address":"123 E Marshall Street","ID":null,"Address_1":"123 E Marshall Street","Name":null,"Type__Business_or_Residences_":"Vacant","Business_Type":"Vacant","Identification":"Vacant","ID2level":"Vacant","Notes":null,"Shape_Length":88.209112907076531,"Shape_Area":461.77670822613408}},{"type":"Feature","id":45,"geometry":{"type":"Polygon","coordinates":[[[-77.439404097785285,37.545549932768907],[-77.439320375699111,37.545631922974458],[-77.439560223185026,37.545774908292586],[-77.43964237052451,37.545693557128182],[-77.439404097785285,37.545549932768907]]]},"properties":{"OBJECTID":45,"Address":"400 N 2nd Street","ID":null,"Address_1":"400 N 2nd Street","Name":null,"Type__Business_or_Residences_":"Commercial","Business_Type":"Chic-A-Sea Restraunt ","Identification":"Commercial","ID2level":"Resturant","Notes":null,"Shape_Length":96.167027134738333,"Shape_Area":490.90531795229595}},{"type":"Feature","id":46,"geometry":{"type":"Polygon","coordinates":[[[-77.439320375699111,37.545631922974458],[-77.439281150762227,37.545668451909272],[-77.439419035870145,37.545753937680587],[-77.439458903102462,37.545714505677573],[-77.439320375699111,37.545631922974458]]]},"properties":{"OBJECTID":46,"Address":"402 N 2nd Street","ID":null,"Address_1":"402 N 2nd Street","Name":null,"Type__Business_or_Residences_":"Commercial","Business_Type":"Artistic Beauty Suite The","Identification":"Commercial","ID2level":"Beauty","Notes":null,"Shape_Length":52.609484108037535,"Shape_Area":133.98072580834128}},{"type":"Feature","id":47,"geometry":{"type":"Polygon","coordinates":[[[-77.439281150762227,37.545668451909272],[-77.439246194619585,37.545704163168907],[-77.439383934200421,37.545787931678582],[-77.439419035870145,37.545753937680587],[-77.439281150762227,37.545668451909272]]]},"properties":{"OBJECTID":47,"Address":"404 N 2nd Street","ID":null,"Address_1":"404 N 2nd Street","Name":null,"Type__Business_or_Residences_":"Commercial","Business_Type":"Moon Palace","Identification":"Commercial","ID2level":"Unknown","Notes":null,"Shape_Length":51.324184153424355,"Shape_Area":121.40155693728123}},{"type":"Feature","id":48,"geometry":{"type":"Polygon","coordinates":[[[-77.439246194619585,37.545704163168907],[-77.439203876783182,37.54574757377565],[-77.439457462204729,37.545893621517656],[-77.439496984483966,37.54584980074366],[-77.439383934200421,37.545787931678582],[-77.439246194619585,37.545704163168907]]]},"properties":{"OBJECTID":48,"Address":"414 N 2nd Street","ID":null,"Address_1":"414 N 2nd Street","Name":null,"Type__Business_or_Residences_":"Commercial","Business_Type":"Little Market The gro","Identification":"Commericial","ID2level":"Grocery","Notes":"Grocery ","Shape_Length":84.773206354465543,"Shape_Area":257.77753222189097}},{"type":"Feature","id":49,"geometry":{"type":"Polygon","coordinates":[[[-77.439203876783182,37.54574757377565],[-77.439168769723551,37.545789133946727],[-77.439420127323203,37.545933529916297],[-77.439457462204729,37.545893621517656],[-77.439203876783182,37.54574757377565]]]},"properties":{"OBJECTID":49,"Address":"416 N 2nd Street","ID":null,"Address_1":"416 N 2nd Street","Name":null,"Type__Business_or_Residences_":"Commercial","Business_Type":"Anderson's Grill","Identification":"Commercial","ID2level":"Resturant","Notes":null,"Shape_Length":83.443248441113411,"Shape_Area":242.94860877007164}},{"type":"Feature","id":50,"geometry":{"type":"Polygon","coordinates":[[[-77.439168769723551,37.545789133946727],[-77.439034803965242,37.545934038457659],[-77.439381202423633,37.546140632025768],[-77.439526428564037,37.545995015674272],[-77.439168769723551,37.545789133946727]]]},"properties":{"OBJECTID":50,"Address":"418 N 2nd Street","ID":null,"Address_1":"418 N 2nd Street","Name":null,"Type__Business_or_Residences_":"Commercial","Business_Type":"Frances Beauty Salon","Identification":"Commercial","ID2level":"Beauty","Notes":null,"Shape_Length":148.74295045108374,"Shape_Area":1249.1948392020174}},{"type":"Feature","id":51,"geometry":{"type":"Polygon","coordinates":[[[-77.439034803965242,37.545934038457659],[-77.438934644505991,37.546038051472436],[-77.439283474703871,37.546247152548638],[-77.439381202423633,37.546140632025768],[-77.439034803965242,37.545934038457659]]]},"properties":{"OBJECTID":51,"Address":"420 N 2nd Street","ID":null,"Address_1":"420 N 2nd Street","Name":null,"Type__Business_or_Residences_":"Commercial","Business_Type":"Walter & Wiley's Barber Shop","Identification":"Commercial","ID2level":"Beauty","Notes":null,"Shape_Length":133.80030004039574,"Shape_Area":893.33944525324989}},{"type":"Feature","id":52,"geometry":{"type":"Polygon","coordinates":[[[-77.438842106353633,37.546140338582582],[-77.438909060486708,37.54617918133745],[-77.438977354007861,37.546105374672827],[-77.438909823156379,37.546066600254662],[-77.438842106353633,37.546140338582582]]]},"properties":{"OBJECTID":52,"Address":"422 N 2nd Street","ID":null,"Address_1":"422 N 2nd Street","Name":null,"Type__Business_or_Residences_":"Business ","Business_Type":"Howard's Beauty Nook","Identification":"Commercial","ID2level":"Beauty","Notes":null,"Shape_Length":44.175982051923597,"Shape_Area":118.78132674214578}},{"type":"Feature","id":53,"geometry":{"type":"Polygon","coordinates":[[[-77.438842106353633,37.546140338582582],[-77.438728338316167,37.546261615288451],[-77.438792026174866,37.546298299895099],[-77.438909060486708,37.54617918133745],[-77.438842106353633,37.546140338582582]]]},"properties":{"OBJECTID":53,"Address":"424 N 2nd Street","ID":null,"Address_1":"424 N 2nd Street","Name":null,"Type__Business_or_Residences_":"Commercial","Business_Type":"American Driver Training School","Identification":"Institutional","ID2level":"Education","Notes":null,"Shape_Length":60.419576742784685,"Shape_Area":190.8267314284636}},{"type":"Feature","id":54,"geometry":{"type":"Polygon","coordinates":[[[-77.438540561675708,37.54645496673681],[-77.438502936638343,37.546496399023077],[-77.438585154046407,37.546540041357687],[-77.43862138579675,37.546501646788144],[-77.438540561675708,37.54645496673681]]]},"properties":{"OBJECTID":54,"Address":"500 N 2nd Street","ID":null,"Address_1":"500 N 2nd Street","Name":null,"Type__Business_or_Residences_":"No data available","Business_Type":null,"Identification":"No data available","ID2level":"No data available","Notes":null,"Shape_Length":36.046229353842456,"Shape_Area":76.920877808555602}},{"type":"Feature","id":55,"geometry":{"type":"Polygon","coordinates":[[[-77.438502936638343,37.546496399023077],[-77.438468103564887,37.546534195316219],[-77.438550665027691,37.546576501472749],[-77.438585154046407,37.546540041357687],[-77.438502936638343,37.546496399023077]]]},"properties":{"OBJECTID":55,"Address":"502 N 2nd Street","ID":null,"Address_1":"502 N 2nd Street","Name":null,"Type__Business_or_Residences_":"No data available","Business_Type":null,"Identification":"No data available","ID2level":"No data available","Notes":null,"Shape_Length":34.928591744375431,"Shape_Area":71.09110273475811}},{"type":"Feature","id":56,"geometry":{"type":"Polygon","coordinates":[[[-77.438468103564887,37.546534195316219],[-77.438433957702628,37.546572634739924],[-77.438512691444004,37.546614066960728],[-77.438550665027691,37.546576501472749],[-77.438468103564887,37.546534195316219]]]},"properties":{"OBJECTID":56,"Address":"504 N 2nd Street","ID":null,"Address_1":"504 N 2nd Street","Name":null,"Type__Business_or_Residences_":"No data available","Business_Type":null,"Identification":"No data available","ID2level":"No data available","Notes":null,"Shape_Length":34.822969040151619,"Shape_Area":71.498979692889677}},{"type":"Feature","id":57,"geometry":{"type":"Polygon","coordinates":[[[-77.438433957702628,37.546572634739924],[-77.438404344739268,37.546602742402932],[-77.438482756883786,37.546645012196542],[-77.438512691444004,37.546614066960728],[-77.438433957702628,37.546572634739924]]]},"properties":{"OBJECTID":57,"Address":"506 N 2nd Street","ID":null,"Address_1":"506 N 2nd Street","Name":null,"Type__Business_or_Residences_":"No data available","Business_Type":null,"Identification":"No data available","ID2level":"No data available","Notes":null,"Shape_Length":31.910832345503518,"Shape_Area":56.963770616399891}},{"type":"Feature","id":58,"geometry":{"type":"Polygon","coordinates":[[[-77.438404344739268,37.546602742402932],[-77.438373494795783,37.546633904875414],[-77.438450309735728,37.546675859843155],[-77.438482756883786,37.546645012196542],[-77.438404344739268,37.546602742402932]]]},"properties":{"OBJECTID":58,"Address":"508 N 2nd Street","ID":null,"Address_1":"508 N 2nd Street","Name":null,"Type__Business_or_Residences_":"No data available","Business_Type":null,"Identification":"No data available","ID2level":"No data available","Notes":null,"Shape_Length":32.140547027140798,"Shape_Area":58.442246009430846}},{"type":"Feature","id":59,"geometry":{"type":"Polygon","coordinates":[[[-77.438450309735728,37.546675859843155],[-77.438372123068348,37.54663315560304],[-77.438347305311993,37.546658236281004],[-77.438424966464936,37.546700014600688],[-77.438450309735728,37.546675859843155]]]},"properties":{"OBJECTID":59,"Address":"510 N 2nd Street","ID":null,"Address_1":"510 N 2nd Street","Name":null,"Type__Business_or_Residences_":"No data available","Business_Type":null,"Identification":"No data available","ID2level":"No data available","Notes":null,"Shape_Length":29.903594129868878,"Shape_Area":46.540866028059597}},{"type":"Feature","id":60,"geometry":{"type":"Polygon","coordinates":[[[-77.438347305311993,37.546658236281004],[-77.438311132850444,37.546696699856788],[-77.438390843958871,37.546743198136753],[-77.438364310420326,37.546769748118137],[-77.438502936638343,37.546853269709587],[-77.438587830127616,37.546761046745047],[-77.438462763080508,37.546681427389402],[-77.438447808825984,37.546695285357067],[-77.438436788294084,37.546687732811307],[-77.438424966464936,37.546700014600688],[-77.438347305311993,37.546658236281004]]]},"properties":{"OBJECTID":60,"Address":"516 N 2nd Street","ID":null,"Address_1":"516 N 2nd Street","Name":null,"Type__Business_or_Residences_":"Commercial","Business_Type":"Potts Amusement Center","Identification":"Commercial","ID2level":"Entertainment","Notes":"Social Use?","Shape_Length":92.574525846128907,"Shape_Area":387.09931064016888}},{"type":"Feature","id":61,"geometry":{"type":"Polygon","coordinates":[[[-77.438364310420326,37.546769748118137],[-77.438390843958871,37.546743198136753],[-77.438311132850444,37.546696699856788],[-77.438285400609132,37.546724834578107],[-77.438364310420326,37.546769748118137]]]},"properties":{"OBJECTID":61,"Address":"522 N 2nd Street","ID":null,"Address_1":"522 N 2nd Street","Name":null,"Type__Business_or_Residences_":"Both","Business_Type":"Woo John Laundry, Woo Quin Chon","Identification":"Mixed Use","ID2level":"Services / Residential","Notes":null,"Shape_Length":31.465151487749232,"Shape_Area":52.561743740811501}},{"type":"Feature","id":62,"geometry":{"type":"Polygon","coordinates":[[[-77.438255335793215,37.546756539010325],[-77.438192354010326,37.546820093842385],[-77.438595967965796,37.547060419120037],[-77.438651652733625,37.547003939099241],[-77.438255335793215,37.546756539010325]]]},"properties":{"OBJECTID":62,"Address":"526 N 2nd Street","ID":null,"Address_1":"526 N 2nd Street","Name":null,"Type__Business_or_Residences_":"Institutional","Business_Type":"Greater Capital City Elks Lodge","Identification":"Institutional","ID2level":"Community & Athletic Center","Notes":"Social Use?","Shape_Length":133.75423202013323,"Shape_Area":601.33561702308975}},{"type":"Feature","id":63,"geometry":{"type":"Polygon","coordinates":[[[-77.438192354010326,37.546820093842385],[-77.438128001398312,37.546887442689162],[-77.438534218671492,37.547120596291592],[-77.438595967965796,37.547060419120037],[-77.438192354010326,37.546820093842385]]]},"properties":{"OBJECTID":63,"Address":"528 N 2nd Street","ID":null,"Address_1":"528 N 2nd Street","Name":null,"Type__Business_or_Residences_":"Residential","Business_Type":"Jackson Nathan (Rev)","Identification":"Residential","ID2level":"Residential","Notes":"He's a reverned ","Shape_Length":134.77010077624951,"Shape_Area":636.83443546236754}},{"type":"Feature","id":64,"geometry":{"type":"Polygon","coordinates":[[[-77.438128001398312,37.546887442689162],[-77.43806736152338,37.546948845041271],[-77.43846590718401,37.547186922103414],[-77.438534218671492,37.547120596291592],[-77.438128001398312,37.546887442689162]]]},"properties":{"OBJECTID":64,"Address":"536 N 2nd Street","ID":null,"Address_1":"536 N 2nd Street","Name":null,"Type__Business_or_Residences_":"Commercial","Business_Type":"Ned's Barber Shop","Identification":"Commercial","ID2level":"Beauty","Notes":null,"Shape_Length":134.34653272663812,"Shape_Area":639.08409982659293}},{"type":"Feature","id":65,"geometry":{"type":"Polygon","coordinates":[[[-77.43806736152338,37.546948845041271],[-77.438013296417992,37.54700677093588],[-77.43841550989994,37.547238186323085],[-77.43846590718401,37.547186922103414],[-77.43806736152338,37.546948845041271]]]},"properties":{"OBJECTID":65,"Address":"526 N 2nd Street","ID":null,"Address_1":"526 N 2nd Street","Name":null,"Type__Business_or_Residences_":"Institutional","Business_Type":"Greater Capital City Elks Lodge","Identification":"Institutional","ID2level":"Community & Athletic Center","Notes":"Social Use?","Shape_Length":130.11373861429274,"Shape_Area":533.28164804254232}},{"type":"Feature","id":66,"geometry":{"type":"Polygon","coordinates":[[[-77.438013296417992,37.54700677093588],[-77.437925281283086,37.547098620387025],[-77.438324169201863,37.54733318496767],[-77.43841550989994,37.547238186323085],[-77.438013296417992,37.54700677093588]]]},"properties":{"OBJECTID":66,"Address":"528 N 2nd Street","ID":null,"Address_1":"528 N 2nd Street","Name":null,"Type__Business_or_Residences_":"Residential","Business_Type":"Jackson Nathan (Rev)","Identification":"Residential","ID2level":"Residential","Notes":"He's a reverned ","Shape_Length":143.57311795412218,"Shape_Area":911.44729648761529}},{"type":"Feature","id":67,"geometry":{"type":"Polygon","coordinates":[[[-77.437925281283086,37.547098620387025],[-77.437820257446603,37.547214473322931],[-77.438213528199881,37.54744527198779],[-77.438324169201863,37.54733318496767],[-77.437925281283086,37.547098620387025]]]},"properties":{"OBJECTID":67,"Address":"532 N 2nd Street","ID":null,"Address_1":"532 N 2nd Street","Name":null,"Type__Business_or_Residences_":null,"Business_Type":null,"Identification":null,"ID2level":null,"Notes":null,"Shape_Length":149.76730075072456,"Shape_Area":1097.7023464508397}},{"type":"Feature","id":68,"geometry":{"type":"Polygon","coordinates":[[[-77.437820257446603,37.547214473322931],[-77.437785538459181,37.547249052108135],[-77.437880760777603,37.547306340323878],[-77.437917291666949,37.547271419694852],[-77.437820257446603,37.547214473322931]]]},"properties":{"OBJECTID":68,"Address":"536 N 2nd Street","ID":null,"Address_1":"536 N 2nd Street","Name":null,"Type__Business_or_Residences_":"Commercial","Business_Type":"Ned's Barber Shop","Identification":"Commercial","ID2level":"Beauty","Notes":null,"Shape_Length":39.320896518225275,"Shape_Area":84.01326713746495}},{"type":"Feature","id":69,"geometry":{"type":"Polygon","coordinates":[[[-77.437785538459181,37.547249052108135],[-77.437755877885138,37.5472793710302],[-77.437852221301029,37.547336660647126],[-77.437880760777603,37.547306340323878],[-77.437785538459181,37.547249052108135]]]},"properties":{"OBJECTID":69,"Address":"538 N 2nd Street","ID":null,"Address_1":"538 N 2nd Street","Name":null,"Type__Business_or_Residences_":"Vacant","Business_Type":"Vacant","Identification":"Vacant","ID2level":"Vacant","Notes":null,"Shape_Length":37.4117323719572,"Shape_Area":71.446700327230417}},{"type":"Feature","id":70,"geometry":{"type":"Polygon","coordinates":[[[-77.437755877885138,37.5472793710302],[-77.43771813247352,37.547314069439921],[-77.437817403498926,37.547372864682345],[-77.437852221301029,37.547336660647126],[-77.437755877885138,37.5472793710302]]]},"properties":{"OBJECTID":70,"Address":"540 N 2nd Street","ID":null,"Address_1":"540 N 2nd Street","Name":null,"Type__Business_or_Residences_":"Vacant","Business_Type":"Vacant","Identification":"Vacant","ID2level":"Vacant","Notes":null,"Shape_Length":40.025638853809362,"Shape_Area":87.108477592936183}},{"type":"Feature","id":71,"geometry":{"type":"Polygon","coordinates":[[[-77.43771813247352,37.547314069439921],[-77.437612559766393,37.547422391648695],[-77.437658667594974,37.547451747567614],[-77.437764313963953,37.54734142118815],[-77.43771813247352,37.547314069439921]]]},"properties":{"OBJECTID":71,"Address":"119 E Leigh Street","ID":null,"Address_1":"119 E Leigh Street","Name":null,"Type__Business_or_Residences_":"Mixed Use","Business_Type":"Liberty Confectionary, Williams Lacy F","Identification":"Mixed Use","ID2level":"Shop / Residential","Notes":"She lives on the 2nd floor","Shape_Length":51.669058203601693,"Shape_Area":125.6500536035205}},{"type":"Feature","id":72,"geometry":{"type":"Polygon","coordinates":[[[-77.437658667594974,37.547451747567614],[-77.437714507771361,37.547483624049889],[-77.437817403498926,37.547372864682345],[-77.437764313963953,37.54734142118815],[-77.437658667594974,37.547451747567614]]]},"properties":{"OBJECTID":72,"Address":"117 E Leigh Street","ID":null,"Address_1":"117 E Leigh Street","Name":null,"Type__Business_or_Residences_":"Residential","Business_Type":"Dixon Rhoda","Identification":"Residential","ID2level":"Residential","Notes":null,"Shape_Length":53.799565629873733,"Shape_Area":145.69921862168593}},{"type":"Feature","id":73,"geometry":{"type":"Polygon","coordinates":[[[-77.437578244122534,37.547610451802669],[-77.437490913503879,37.547558408662418],[-77.437367624222702,37.547689194128004],[-77.437458959530915,37.547740547030472],[-77.437578244122534,37.547610451802669]]]},"properties":{"OBJECTID":73,"Address":"118 E Leigh Street","ID":null,"Address_1":"118 E Leigh Street","Name":null,"Type__Business_or_Residences_":"No data available","Business_Type":null,"Identification":"No data available","ID2level":"No data available","Notes":null,"Shape_Length":70.133597457848225,"Shape_Area":280.13143687972286}},{"type":"Feature","id":74,"geometry":{"type":"Polygon","coordinates":[[[-77.437367624222702,37.547689194128004],[-77.437299860707554,37.547762995663341],[-77.43739083848628,37.547816309982068],[-77.437458959530915,37.547740547030472],[-77.437367624222702,37.547689194128004]]]},"properties":{"OBJECTID":74,"Address":"600 1/2 N 2nd Street","ID":null,"Address_1":"600 1/2 N 2nd Street","Name":null,"Type__Business_or_Residences_":"Commercial","Business_Type":"2nd Streetreet Laundercenter self serv","Identification":"Commercial","ID2level":"Services","Notes":null,"Shape_Length":50.938978710571156,"Shape_Area":162.12109257289688}},{"type":"Feature","id":75,"geometry":{"type":"Polygon","coordinates":[[[-77.437299860707554,37.547762995663341],[-77.437227165441513,37.547840326198468],[-77.437382000860509,37.547938246329252],[-77.437460799280615,37.547859248578483],[-77.437392282078932,37.547817156105118],[-77.437299860707554,37.547762995663341]]]},"properties":{"OBJECTID":75,"Address":"602 N 2nd Street","ID":null,"Address_1":"602 N 2nd Street","Name":null,"Type__Business_or_Residences_":"Commercial","Business_Type":"Amusement Home ","Identification":"Commercial","ID2level":"Entertainment","Notes":null,"Shape_Length":72.173143521464297,"Shape_Area":309.23250693958715}},{"type":"Feature","id":76,"geometry":{"type":"Polygon","coordinates":[[[-77.437400049811203,37.548014655778381],[-77.437179797276571,37.547882263393852],[-77.437144500672431,37.547920305413776],[-77.437362942203436,37.548052143621554],[-77.437400049811203,37.548014655778381]]]},"properties":{"OBJECTID":76,"Address":"604 N 2nd Street","ID":null,"Address_1":"604 N 2nd Street","Name":null,"Type__Business_or_Residences_":"Commercial","Business_Type":"Eggleston Hotel & New Motel The","Identification":"Commercial","ID2level":"Hotel","Notes":null,"Shape_Length":74.650726104378293,"Shape_Area":204.22717323618662}},{"type":"Feature","id":77,"geometry":{"type":"Polygon","coordinates":[[[-77.437144500672431,37.547920305413776],[-77.437112822482263,37.547953851147462],[-77.437328088468732,37.548085270509318],[-77.437362942203436,37.548052143621554],[-77.437144500672431,37.547920305413776]]]},"properties":{"OBJECTID":77,"Address":"606 1/2 N 2nd Street","ID":null,"Address_1":"606 1/2 N 2nd Street","Name":null,"Type__Business_or_Residences_":"Other","Business_Type":"Peter Piper's Pantries","Identification":"Institutional","ID2level":"Community & Athletic Centers","Notes":"Pantries give free food they can't be a business?","Shape_Length":72.745819603090681,"Shape_Area":181.4293144206994}},{"type":"Feature","id":78,"geometry":{"type":"Polygon","coordinates":[[[-77.437112822482263,37.547953851147462],[-77.437084179699411,37.547982293074732],[-77.43729868571117,37.548111667597155],[-77.437328088468732,37.548085270509318],[-77.437112822482263,37.547953851147462]]]},"properties":{"OBJECTID":78,"Address":"610 N 2nd Street","ID":null,"Address_1":"610 N 2nd Street","Name":null,"Type__Business_or_Residences_":"No data available","Business_Type":"No data available","Identification":"No data available","ID2level":"No data available","Notes":null,"Shape_Length":70.301713598158173,"Shape_Area":151.24320210123784}},{"type":"Feature","id":79,"geometry":{"type":"Polygon","coordinates":[[[-77.437084179699411,37.547982293074732],[-77.437046640900334,37.548024507244932],[-77.437260987011967,37.548150885377815],[-77.43729868571117,37.548111667597155],[-77.437084179699411,37.547982293074732]]]},"properties":{"OBJECTID":79,"Address":"612 N 2nd Street","ID":null,"Address_1":"612 N 2nd Street","Name":null,"Type__Business_or_Residences_":"No data available","Business_Type":"No data available","Identification":"No data available","ID2level":"No data available","Notes":null,"Shape_Length":73.913466624372489,"Shape_Area":211.64594817574516}},{"type":"Feature","id":80,"geometry":{"type":"Polygon","coordinates":[[[-77.436801949698406,37.548289583996059],[-77.436944020955522,37.548380069390831],[-77.437086461420236,37.548245936987996],[-77.437152864886045,37.548287507873908],[-77.437201942544959,37.548239106079002],[-77.437305485059539,37.54830981033701],[-77.437388079760041,37.548225819599502],[-77.437046640900334,37.548024507244932],[-77.436933808907384,37.54815037044164],[-77.436801949698406,37.548289583996059]]]},"properties":{"OBJECTID":80,"Address":"630 N 2nd Street","ID":null,"Address_1":"630 N 2nd Street","Name":null,"Type__Business_or_Residences_":"Commercial","Business_Type":"Fleming's Auto Service","Identification":"Commercial","ID2level":"Auto Services","Notes":null,"Shape_Length":186.70106647439709,"Shape_Area":1433.5430576543436}},{"type":"Feature","id":81,"geometry":{"type":"Polygon","coordinates":[[[-77.436665676168104,37.548433186695739],[-77.436879344950015,37.548564155090901],[-77.436952004283455,37.548485846006429],[-77.436738693929357,37.548358212086058],[-77.436665676168104,37.548433186695739]]]},"properties":{"OBJECTID":81,"Address":"700 N 2nd Street","ID":null,"Address_1":"700 N 2nd Street","Name":null,"Type__Business_or_Residences_":"Commercial","Business_Type":"Rubicon Inc","Identification":"Commercial","ID2level":"Medical","Notes":null,"Shape_Length":86.763381946631739,"Shape_Area":402.94574520635416}},{"type":"Feature","id":82,"geometry":{"type":"Polygon","coordinates":[[[-77.436665676168104,37.548433186695739],[-77.436595649796772,37.548501517658529],[-77.436813508321151,37.54863153726054],[-77.436879344950015,37.548564155090901],[-77.436665676168104,37.548433186695739]]]},"properties":{"OBJECTID":82,"Address":"702 N 2nd Street","ID":null,"Address_1":"702 N 2nd Street","Name":null,"Type__Business_or_Residences_":"Vacant","Business_Type":"Vacant","Identification":"Vacant","ID2level":"Vacant","Notes":null,"Shape_Length":84.749111487542962,"Shape_Area":367.39247294360842}},{"type":"Feature","id":83,"geometry":{"type":"Polygon","coordinates":[[[-77.436595649796772,37.548501517658529],[-77.436535200364688,37.548562731367788],[-77.43675724773324,37.548691801478526],[-77.436813508321151,37.54863153726054],[-77.436595649796772,37.548501517658529]]]},"properties":{"OBJECTID":83,"Address":"706 N 2nd Street","ID":null,"Address_1":"706 N 2nd Street","Name":null,"Type__Business_or_Residences_":"Residential","Business_Type":"Cox John D","Identification":"Residential","ID2level":"Residential","Notes":null,"Shape_Length":82.447537061318386,"Shape_Area":326.96850767667627}},{"type":"Feature","id":84,"geometry":{"type":"Polygon","coordinates":[[[-77.436535200364688,37.548562731367788],[-77.43648372779721,37.548611607289281],[-77.436709965806571,37.548739253595642],[-77.43675724773324,37.548691801478526],[-77.436535200364688,37.548562731367788]]]},"properties":{"OBJECTID":84,"Address":"708 N 2nd Street","ID":null,"Address_1":"708 N 2nd Street","Name":null,"Type__Business_or_Residences_":"Residential","Business_Type":"Scott Rosa R","Identification":"Residential","ID2level":"Residential","Notes":null,"Shape_Length":78.99152558493283,"Shape_Area":267.79797842727339}},{"type":"Feature","id":85,"geometry":{"type":"Polygon","coordinates":[[[-77.43648372779721,37.548611607289281],[-77.436447817643725,37.548651941562895],[-77.436759641743464,37.548835581457119],[-77.43677681124349,37.548818229047328],[-77.436828777884372,37.548851192497416],[-77.437107976071303,37.54857791584692],[-77.436952004283455,37.548485846006429],[-77.436709965806571,37.548739253595642],[-77.43648372779721,37.548611607289281]]]},"properties":{"OBJECTID":85,"Address":"710 N 2nd Street","ID":null,"Address_1":"710 N 2nd Street","Name":null,"Type__Business_or_Residences_":"Mixed Use","Business_Type":"Clara's Beauty Salon, Edwards Clara J","Identification":"Mixed Use","ID2level":"Beauty","Notes":"Both Business and Residential","Shape_Length":207.24443192121069,"Shape_Area":1286.1224213893524}},{"type":"Feature","id":86,"geometry":{"type":"Polygon","coordinates":[[[-77.436447817643725,37.548651941562895],[-77.436380137671904,37.54872756114495],[-77.436678914640453,37.548915547496833],[-77.436759641743464,37.548835581457119],[-77.436447817643725,37.548651941562895]]]},"properties":{"OBJECTID":86,"Address":"714 N 2nd Street","ID":null,"Address_1":"714 N 2nd Street","Name":null,"Type__Business_or_Residences_":"Residential","Business_Type":"Foster Alma R","Identification":"Residential","ID2level":"Residential","Notes":null,"Shape_Length":113.10133238629598,"Shape_Area":586.7227744053173}},{"type":"Feature","id":87,"geometry":{"type":"Polygon","coordinates":[[[-77.436380137671904,37.54872756114495],[-77.436338002193509,37.548773115184581],[-77.436635820659646,37.54895954737092],[-77.436678914640453,37.548915547496833],[-77.436380137671904,37.54872756114495]]]},"properties":{"OBJECTID":87,"Address":"718 N 2nd Street","ID":null,"Address_1":"718 N 2nd Street","Name":null,"Type__Business_or_Residences_":"Vacant","Business_Type":"Vacant","Identification":"Vacant","ID2level":"Vacant","Notes":null,"Shape_Length":100.45501531923001,"Shape_Area":333.46279163761869}},{"type":"Feature","id":88,"geometry":{"type":"Polygon","coordinates":[[[-77.436338002193509,37.548773115184581],[-77.436290537908846,37.548824209518386],[-77.436569441448356,37.548995774833152],[-77.436619530610287,37.548949528657644],[-77.436338002193509,37.548773115184581]]]},"properties":{"OBJECTID":88,"Address":"720 N 2nd Street","ID":null,"Address_1":"720 N 2nd Street","Name":null,"Type__Business_or_Residences_":"Residential","Business_Type":"Taylor Lewis E Jr","Identification":"Residential","ID2level":"Residential","Notes":null,"Shape_Length":96.711486678040799,"Shape_Area":345.81194587498806}},{"type":"Feature","id":89,"geometry":{"type":"Polygon","coordinates":[[[-77.436290537908846,37.548824209518386],[-77.436240714648235,37.548872685003722],[-77.436523152160078,37.549042770228191],[-77.436570573325625,37.548994507805318],[-77.436290537908846,37.548824209518386]]]},"properties":{"OBJECTID":89,"Address":"722 N 2nd Street","ID":null,"Address_1":"722 N 2nd Street","Name":null,"Type__Business_or_Residences_":"Residential","Business_Type":"Layne Clara L ","Identification":"Residential","ID2level":"Residential","Notes":null,"Shape_Length":96.139599045323905,"Shape_Area":341.9577750954108}},{"type":"Feature","id":90,"geometry":{"type":"Polygon","coordinates":[[[-77.436240714648235,37.548872685003722],[-77.436172501975435,37.548948517313818],[-77.436456333672623,37.549115790550808],[-77.436523152160078,37.549042770228191],[-77.436240714648235,37.548872685003722]]]},"properties":{"OBJECTID":90,"Address":"724 N 2nd Street","ID":null,"Address_1":"724 N 2nd Street","Name":null,"Type__Business_or_Residences_":"Institutional","Business_Type":"Bright Star Freewill Baptist Church","Identification":"Institutional","ID2level":"Worship","Notes":"Religious","Shape_Length":104.59541120273761,"Shape_Area":507.36998400795562}},{"type":"Feature","id":91,"geometry":{"type":"Polygon","coordinates":[[[-77.436172501975435,37.548948517313818],[-77.436141588251573,37.548984885087485],[-77.436424277291692,37.549149790137825],[-77.436456333672623,37.549115790550808],[-77.436172501975435,37.548948517313818]]]},"properties":{"OBJECTID":91,"Address":"724a N 2nd Street","ID":null,"Address_1":"724a N 2nd Street","Name":null,"Type__Business_or_Residences_":"Residential","Business_Type":"Philips Louise","Identification":"Residential","ID2level":"Residential","Notes":null,"Shape_Length":90.555835352613485,"Shape_Area":237.50642631735974}},{"type":"Feature","id":92,"geometry":{"type":"Polygon","coordinates":[[[-77.436141588251573,37.548984885087485],[-77.43611008882614,37.549020625383541],[-77.436384486416202,37.549189574292789],[-77.436424277291692,37.549149790137825],[-77.436141588251573,37.548984885087485]]]},"properties":{"OBJECTID":92,"Address":"726 N 2nd Street","ID":null,"Address_1":"726 N 2nd Street","Name":null,"Type__Business_or_Residences_":"Vacant","Business_Type":"Vacant","Identification":"Vacant","ID2level":"Vacant","Notes":null,"Shape_Length":90.99514566405432,"Shape_Area":257.40499569026127}},{"type":"Feature","id":93,"geometry":{"type":"Polygon","coordinates":[[[-77.43611008882614,37.549020625383541],[-77.436071087569758,37.549063327543735],[-77.436350595675478,37.549228965285906],[-77.436384486416202,37.549189574292789],[-77.43611008882614,37.549020625383541]]]},"properties":{"OBJECTID":93,"Address":"728 N 2nd Street","ID":null,"Address_1":"728 N 2nd Street","Name":null,"Type__Business_or_Residences_":"Vacant","Business_Type":"Vacant","Identification":"Vacant","ID2level":"Vacant","Notes":null,"Shape_Length":91.618572392970677,"Shape_Area":272.98184898101255}},{"type":"Feature","id":94,"geometry":{"type":"Polygon","coordinates":[[[-77.436071087569758,37.549063327543735],[-77.436037504052877,37.54909562639105],[-77.436317928440147,37.549265266687165],[-77.436350595675478,37.549228965285906],[-77.436071087569758,37.549063327543735]]]},"properties":{"OBJECTID":94,"Address":"730 N 2nd Street","ID":null,"Address_1":"730 N 2nd Street","Name":null,"Type__Business_or_Residences_":"Institutional","Business_Type":"Temple Of God With Last Day Message","Identification":"Institutional","ID2level":"Worship","Notes":null,"Shape_Length":90.250445931411548,"Shape_Area":236.88964868453922}},{"type":"Feature","id":95,"geometry":{"type":"Polygon","coordinates":[[[-77.436317928440147,37.549265266687165],[-77.436037504052877,37.54909562639105],[-77.435988390461347,37.549144921456033],[-77.436274742831202,37.549316013837078],[-77.436317928440147,37.549265266687165]]]},"properties":{"OBJECTID":95,"Address":"732a N 2nd Street","ID":null,"Address_1":"732a N 2nd Street","Name":null,"Type__Business_or_Residences_":"Residential","Business_Type":"Shaw Dessie P ","Identification":"Residential","ID2level":"Residential","Notes":null,"Shape_Length":96.596666231324235,"Shape_Area":344.45242928103647}},{"type":"Feature","id":96,"geometry":{"type":"Polygon","coordinates":[[[-77.435988390461347,37.549144921456033],[-77.435946735581624,37.549190267274746],[-77.43623618354593,37.549362481282557],[-77.436274742831202,37.549316013837078],[-77.435988390461347,37.549144921456033]]]},"properties":{"OBJECTID":96,"Address":"732b N 2nd Street","ID":null,"Address_1":"732b N 2nd Street","Name":null,"Type__Business_or_Residences_":"Residential","Business_Type":"Mc Clain Scott D","Identification":"Residential","ID2level":"Residential","Notes":null,"Shape_Length":95.886352898698163,"Shape_Area":314.18173610535132}},{"type":"Feature","id":97,"geometry":{"type":"Polygon","coordinates":[[[-77.435946735581624,37.549190267274746],[-77.43578109432805,37.549361043330521],[-77.435759615609612,37.549414469035291],[-77.435766775182429,37.549460883003711],[-77.436045164885613,37.549580088904179],[-77.43623618354593,37.549362481282557],[-77.435946735581624,37.549190267274746]]]},"properties":{"OBJECTID":97,"Address":"736 N 2nd Street","ID":null,"Address_1":"736 N 2nd Street","Name":null,"Type__Business_or_Residences_":"Residential","Business_Type":"Lincoln Court The apta","Identification":"Residential","ID2level":"Residential","Notes":"16 residents with 4 no returns","Shape_Length":157.41834639280688,"Shape_Area":1626.6518534849283}},{"type":"Feature","id":98,"geometry":{"type":"Polygon","coordinates":[[[-77.437118903178401,37.5473237073302],[-77.436911502840559,37.547551663869882],[-77.437082215083876,37.547656737269229],[-77.437294107896477,37.547432936904059],[-77.437118903178401,37.5473237073302]]]},"properties":{"OBJECTID":98,"Address":"601 N 2nd Street","ID":null,"Address_1":"601 N 2nd Street","Name":null,"Type__Business_or_Residences_":"Commercial","Business_Type":"Owens Exxon Servicenter","Identification":"Commercial","ID2level":"Auto Services","Notes":null,"Shape_Length":127.62418300490117,"Shape_Area":961.72294165808762}},{"type":"Feature","id":99,"geometry":{"type":"Polygon","coordinates":[[[-77.437053762743901,37.547689981137744],[-77.436838874948151,37.547561162132936],[-77.436797694378896,37.54760449758664],[-77.437008336736611,37.547737547848683],[-77.437053762743901,37.547689981137744]]]},"properties":{"OBJECTID":99,"Address":"603 N 2nd Street","ID":null,"Address_1":"603 N 2nd Street","Name":null,"Type__Business_or_Residences_":"Vacant","Business_Type":"Vacant","Identification":"Vacant","ID2level":"Vacant","Notes":null,"Shape_Length":75.964660738396674,"Shape_Area":239.76572250841102}},{"type":"Feature","id":100,"geometry":{"type":"Polygon","coordinates":[[[-77.437008336736611,37.547737547848683],[-77.436797694378896,37.54760449758664],[-77.436765498759115,37.54763833476315],[-77.436977341266044,37.547770258936694],[-77.437008336736611,37.547737547848683]]]},"properties":{"OBJECTID":100,"Address":"603a N 2nd Street","ID":null,"Address_1":"603a N 2nd Street","Name":null,"Type__Business_or_Residences_":"Business ","Business_Type":"Richmond Barber Shop","Identification":"Commercial","ID2level":"Beauty","Notes":null,"Shape_Length":71.662734861829975,"Shape_Area":175.28684830798775}},{"type":"Feature","id":101,"geometry":{"type":"Polygon","coordinates":[[[-77.436765498759115,37.54763833476315],[-77.436742910621305,37.547660628161552],[-77.436957452565665,37.547791283822868],[-77.436977341266044,37.547770258936694],[-77.436765498759115,37.54763833476315]]]},"properties":{"OBJECTID":101,"Address":"605 N 2nd Street","ID":null,"Address_1":"605 N 2nd Street","Name":null,"Type__Business_or_Residences_":"Residential","Business_Type":"Hicks Eva M","Identification":"Residential","ID2level":"Residential","Notes":null,"Shape_Length":67.806872486492637,"Shape_Area":115.75356063832342}},{"type":"Feature","id":102,"geometry":{"type":"Polygon","coordinates":[[[-77.436957452565665,37.547791283822868],[-77.436625609509818,37.547589191830646],[-77.436562801101786,37.547651715361241],[-77.436898562608889,37.54785359992664],[-77.436957452565665,37.547791283822868]]]},"properties":{"OBJECTID":102,"Address":"607 N 2nd Street","ID":null,"Address_1":"607 N 2nd Street","Name":null,"Type__Business_or_Residences_":"Residential","Business_Type":"Marshall John ","Identification":"Residential","ID2level":"Residential","Notes":null,"Shape_Length":115.64551064238222,"Shape_Area":517.76385277158715}},{"type":"Feature","id":103,"geometry":{"type":"Polygon","coordinates":[[[-77.436898562608889,37.54785359992664],[-77.436562801101786,37.547651715361241],[-77.436490419347749,37.547727287526662],[-77.436825688578097,37.547934189503358],[-77.436898562608889,37.54785359992664]]]},"properties":{"OBJECTID":103,"Address":"609 N 2nd Street","ID":null,"Address_1":"609 N 2nd Street","Name":null,"Type__Business_or_Residences_":"Vacant","Business_Type":"Vacant","Identification":"Vacant","ID2level":"Vacant","Notes":null,"Shape_Length":121.45076580598591,"Shape_Area":641.47885217729822}},{"type":"Feature","id":104,"geometry":{"type":"Polygon","coordinates":[[[-77.436825688578097,37.547934189503358],[-77.436490419347749,37.547727287526662],[-77.436416684730915,37.547803809011342],[-77.436756547047295,37.548008864693699],[-77.436825688578097,37.547934189503358]]]},"properties":{"OBJECTID":104,"Address":"613 N 2nd Street","ID":null,"Address_1":"613 N 2nd Street","Name":null,"Type__Business_or_Residences_":"Institutional","Business_Type":"Mocha Temple-Shriners Club No 7","Identification":"Institutional","ID2level":"Community & Athletic Centers","Notes":null,"Shape_Length":121.3647850042272,"Shape_Area":628.85303840730057}},{"type":"Feature","id":105,"geometry":{"type":"Polygon","coordinates":[[[-77.436416684730915,37.547803809011342],[-77.436348345395672,37.547876052086586],[-77.436685246864897,37.548082801234763],[-77.436756547047295,37.548008864693699],[-77.436416684730915,37.547803809011342]]]},"properties":{"OBJECTID":105,"Address":"615 N 2nd Street","ID":null,"Address_1":"615 N 2nd Street","Name":null,"Type__Business_or_Residences_":"Institutional","Business_Type":"Metropolitan Business League","Identification":"Institutional","ID2level":"Economic & Legal Services","Notes":null,"Shape_Length":120.71484175211401,"Shape_Area":611.25731915285746}},{"type":"Feature","id":106,"geometry":{"type":"Polygon","coordinates":[[[-77.436348345395672,37.547876052086586],[-77.436263820215643,37.547959702775429],[-77.436605517790156,37.548165025824183],[-77.436685246864897,37.548082801234763],[-77.436348345395672,37.547876052086586]]]},"properties":{"OBJECTID":106,"Address":"617 N 2nd Street","ID":null,"Address_1":"617 N 2nd Street","Name":null,"Type__Business_or_Residences_":"Business ","Business_Type":"Savoy William T Antique Repair Shop","Identification":"Commercial","ID2level":"Services","Notes":null,"Shape_Length":124.76480535171049,"Shape_Area":704.31082845299807}},{"type":"Feature","id":107,"geometry":{"type":"Polygon","coordinates":[[[-77.436309495954589,37.54809004382254],[-77.436258404272806,37.548140120147501],[-77.436497368714797,37.548285245862225],[-77.436548058849652,37.548236126859472],[-77.436309495954589,37.54809004382254]]]},"properties":{"OBJECTID":107,"Address":"701 N 2nd Street","ID":null,"Address_1":"701 N 2nd Street","Name":null,"Type__Business_or_Residences_":"Institutional","Business_Type":"Club 533","Identification":"Institutional","ID2level":"Community & Athletic Center","Notes":null,"Shape_Length":85.018288866453204,"Shape_Area":300.90781540067616}},{"type":"Feature","id":108,"geometry":{"type":"Polygon","coordinates":[[[-77.436258404272806,37.548140120147501],[-77.436217370128944,37.548186368961893],[-77.436455698563705,37.54832813646977],[-77.436497368714797,37.548285245862225],[-77.436258404272806,37.548140120147501]]]},"properties":{"OBJECTID":108,"Address":"707 N 2nd Street","ID":null,"Address_1":"707 N 2nd Street","Name":null,"Type__Business_or_Residences_":"No data available","Business_Type":"No data available","Identification":"No data available","ID2level":"No data available","Notes":null,"Shape_Length":82.217061200942283,"Shape_Area":258.95995766557178}},{"type":"Feature","id":109,"geometry":{"type":"Polygon","coordinates":[[[-77.436217370128944,37.548186368961893],[-77.436177542422513,37.548226239097595],[-77.436411050497455,37.54837119442417],[-77.436455698563705,37.54832813646977],[-77.436217370128944,37.548186368961893]]]},"properties":{"OBJECTID":109,"Address":"709 N 2nd Street","ID":null,"Address_1":"709 N 2nd Street","Name":null,"Type__Business_or_Residences_":"Commercial","Business_Type":"Atlas Print Shop ","Identification":"Commercial","ID2level":"Services","Notes":null,"Shape_Length":81.14877547708673,"Shape_Area":247.53746278486562}},{"type":"Feature","id":110,"geometry":{"type":"Polygon","coordinates":[[[-77.436177542422513,37.548226239097595],[-77.436135275790079,37.548271904550013],[-77.436371050314492,37.548412866375401],[-77.436411050497455,37.54837119442417],[-77.436177542422513,37.548226239097595]]]},"properties":{"OBJECTID":110,"Address":"709 1/2 N 2nd Street","ID":null,"Address_1":"709 1/2 N 2nd Street","Name":null,"Type__Business_or_Residences_":"No Return","Business_Type":"No return","Identification":"No return","ID2level":"No data available","Notes":null,"Shape_Length":81.191687031615956,"Shape_Area":252.06161090866254}},{"type":"Feature","id":111,"geometry":{"type":"Polygon","coordinates":[[[-77.436371050314492,37.548412866375401],[-77.436028782309776,37.54820823557592],[-77.435996598368092,37.548242257655765],[-77.436339922791575,37.548445338573757],[-77.436371050314492,37.548412866375401]]]},"properties":{"OBJECTID":111,"Address":"711 N 2nd Street","ID":null,"Address_1":"711 N 2nd Street","Name":null,"Type__Business_or_Residences_":"No data available","Business_Type":"No data available","Identification":"No data available","ID2level":"No data available","Notes":null,"Shape_Length":107.10103008123856,"Shape_Area":278.99740933485344}},{"type":"Feature","id":112,"geometry":{"type":"Polygon","coordinates":[[[-77.435996598368092,37.548242257655765],[-77.435963892505214,37.548275457817716],[-77.436308263466017,37.548480172474427],[-77.436339922791575,37.548445338573757],[-77.435996598368092,37.548242257655765]]]},"properties":{"OBJECTID":112,"Address":"719 N 2nd Street","ID":null,"Address_1":"719 N 2nd Street","Name":null,"Type__Business_or_Residences_":"No data available","Business_Type":"No data available","Identification":"No data available","ID2level":"No data available","Notes":null,"Shape_Length":107.54068330174464,"Shape_Area":285.38140129532911}},{"type":"Feature","id":113,"geometry":{"type":"Polygon","coordinates":[[[-77.435963892505214,37.548275457817716],[-77.43589191858635,37.548351762937095],[-77.436238248772767,37.548561601078362],[-77.436313976751222,37.548483855355961],[-77.436308263466017,37.548480172474427],[-77.435963892505214,37.548275457817716]]]},"properties":{"OBJECTID":113,"Address":"721 N 2nd Street","ID":null,"Address_1":"721 N 2nd Street","Name":null,"Type__Business_or_Residences_":"No data available","Business_Type":"No data available","Identification":"No data available","ID2level":"No data available","Notes":null,"Shape_Length":124.42634920782054,"Shape_Area":661.36109638580899}},{"type":"Feature","id":114,"geometry":{"type":"Polygon","coordinates":[[[-77.43589191858635,37.548351762937095],[-77.435849908872072,37.548395100067808],[-77.436199740691507,37.548599572954259],[-77.436238248772767,37.548561601078362],[-77.43589191858635,37.548351762937095]]]},"properties":{"OBJECTID":114,"Address":"723 N 2nd Street","ID":null,"Address_1":"723 N 2nd Street","Name":null,"Type__Business_or_Residences_":"Residential","Business_Type":"Davis Moses","Identification":"Residential","ID2level":"Residential","Notes":null,"Shape_Length":111.41925275739825,"Shape_Area":351.53213133022246}},{"type":"Feature","id":115,"geometry":{"type":"Polygon","coordinates":[[[-77.435849908872072,37.548395100067808],[-77.435815612092853,37.548430410466416],[-77.436161804837042,37.548641213440213],[-77.436199740691507,37.548599572954259],[-77.435849908872072,37.548395100067808]]]},"properties":{"OBJECTID":115,"Address":"723 1/2 N 2nd Street","ID":null,"Address_1":"723 1/2 N 2nd Street","Name":null,"Type__Business_or_Residences_":"Residential","Business_Type":"Carroll Sylvanious","Identification":"Residential","ID2level":"Residential","Notes":null,"Shape_Length":110.44386846879077,"Shape_Area":326.4951923160171}},{"type":"Feature","id":116,"geometry":{"type":"Polygon","coordinates":[[[-77.435815612092853,37.548430410466416],[-77.435726935797902,37.548516794738468],[-77.436080446218384,37.548727080399068],[-77.436161804837042,37.548641213440213],[-77.435815612092853,37.548430410466416]]]},"properties":{"OBJECTID":116,"Address":"725 N 2nd Street","ID":null,"Address_1":"725 N 2nd Street","Name":null,"Type__Business_or_Residences_":"Commercial","Business_Type":"Prices Funeral Home","Identification":"Commercial","ID2level":"Funeral","Notes":null,"Shape_Length":128.50718913525978,"Shape_Area":750.72576612033333}},{"type":"Feature","id":117,"geometry":{"type":"Polygon","coordinates":[[[-77.435726935797902,37.548516794738468],[-77.435593784811545,37.548649234426698],[-77.435954900369239,37.548862759578903],[-77.436080446218384,37.548727080399068],[-77.435726935797902,37.548516794738468]]]},"properties":{"OBJECTID":117,"Address":"727 N 2nd Street","ID":null,"Address_1":"727 N 2nd Street","Name":null,"Type__Business_or_Residences_":"Institutional","Business_Type":"Price Georgie A Memorial Chapel","Identification":"Institutional","ID2level":"Worship","Notes":"Religious","Shape_Length":146.75216438221622,"Shape_Area":1177.1085263654802}},{"type":"Feature","id":118,"geometry":{"type":"Polygon","coordinates":[[[-77.435593784811545,37.548649234426698],[-77.435551634960092,37.548690399124389],[-77.435911534198894,37.548906092139276],[-77.435954900369239,37.548862759578903],[-77.435593784811545,37.548649234426698]]]},"properties":{"OBJECTID":118,"Address":"729 N 2nd Street","ID":null,"Address_1":"729 N 2nd Street","Name":null,"Type__Business_or_Residences_":"Vacant","Business_Type":"Vacant","Identification":"Vacant","ID2level":"Vacant","Notes":null,"Shape_Length":115.58138771959466,"Shape_Area":381.48520764447107}},{"type":"Feature","id":119,"geometry":{"type":"Polygon","coordinates":[[[-77.435551634960092,37.548690399124389],[-77.43548675683364,37.548756715705004],[-77.435845212479776,37.548974541608167],[-77.435911534198894,37.548906092139276],[-77.435551634960092,37.548690399124389]]]},"properties":{"OBJECTID":119,"Address":"731 N 2nd Street","ID":null,"Address_1":"731 N 2nd Street","Name":null,"Type__Business_or_Residences_":"Residential","Business_Type":"Evans Mary B ","Identification":"Residential","ID2level":"Residential","Notes":null,"Shape_Length":124.4011795109644,"Shape_Area":600.53524259977735}},{"type":"Feature","id":120,"geometry":{"type":"Polygon","coordinates":[[[-77.43548675683364,37.548756715705004],[-77.435439390465334,37.548805912708396],[-77.435802316128346,37.54902079204146],[-77.435845212479776,37.548974541608167],[-77.43548675683364,37.548756715705004]]]},"properties":{"OBJECTID":120,"Address":"733 N 2nd Street","ID":null,"Address_1":"733 N 2nd Street","Name":null,"Type__Business_or_Residences_":"Residential","Business_Type":"Bridges Alice J","Identification":"Residential","ID2level":"Residential","Notes":null,"Shape_Length":117.44950675339314,"Shape_Area":421.66415278948188}},{"type":"Feature","id":121,"geometry":{"type":"Polygon","coordinates":[[[-77.435439390465334,37.548805912708396],[-77.435399648098851,37.548848613567188],[-77.435760800487486,37.549063492777108],[-77.435802316128346,37.54902079204146],[-77.435439390465334,37.548805912708396]]]},"properties":{"OBJECTID":121,"Address":"735 N 2nd Street","ID":null,"Address_1":"735 N 2nd Street","Name":null,"Type__Business_or_Residences_":"Vacant","Business_Type":"Vacant","Identification":"Vacant","ID2level":"Vacant","Notes":null,"Shape_Length":115.70907433875685,"Shape_Area":378.08623078438455}},{"type":"Feature","id":122,"geometry":{"type":"Polygon","coordinates":[[[-77.435399648098851,37.548848613567188],[-77.4353459602859,37.548903461931481],[-77.435711376977167,37.549119436365906],[-77.435760800487486,37.549063492777108],[-77.435399648098851,37.548848613567188]]]},"properties":{"OBJECTID":122,"Address":"737 N 2nd Street","ID":null,"Address_1":"737 N 2nd Street","Name":null,"Type__Business_or_Residences_":"Vacant","Business_Type":"Vacant","Identification":"Vacant","ID2level":"Vacant","Notes":null,"Shape_Length":120.34041823393724,"Shape_Area":488.14231534819305}},{"type":"Feature","id":123,"geometry":{"type":"Polygon","coordinates":[[[-77.4353459602859,37.548903461931481],[-77.435186001774824,37.549066449884954],[-77.435561337663486,37.549282758586173],[-77.435711376977167,37.549119436365906],[-77.4353459602859,37.548903461931481]]]},"properties":{"OBJECTID":123,"Address":"739 N 2nd Street","ID":null,"Address_1":"739 N 2nd Street","Name":null,"Type__Business_or_Residences_":"No data available","Business_Type":"No data available","Identification":"No data available","ID2level":"No data available","Notes":null,"Shape_Length":159.75736927094749,"Shape_Area":1468.1421825550922}},{"type":"Feature","id":124,"geometry":{"type":"Polygon","coordinates":[[[-77.435186001774824,37.549066449884954],[-77.435129273164634,37.54912823147567],[-77.435515472380004,37.54933071314754],[-77.435561337663486,37.549282758586173],[-77.435186001774824,37.549066449884954]]]},"properties":{"OBJECTID":124,"Address":"741 N 2nd Street","ID":null,"Address_1":"741 N 2nd Street","Name":null,"Type__Business_or_Residences_":"No data available","Business_Type":"No data available","Identification":"No data available","ID2level":"No data available","Notes":null,"Shape_Length":122.37581284282177,"Shape_Area":494.43234089136865}},{"type":"Feature","id":125,"geometry":{"type":"Polygon","coordinates":[[[-77.434540008880973,37.550359807237662],[-77.434686157591187,37.550208815593997],[-77.434477584053568,37.550077531733848],[-77.434329185063575,37.550237870578655],[-77.434540008880973,37.550359807237662]]]},"properties":{"OBJECTID":125,"Address":"901 N 2nd Street","ID":null,"Address_1":"901 N 2nd Street","Name":null,"Type__Business_or_Residences_":"Institutional","Business_Type":"Church of God The ","Identification":"Institutional","ID2level":"Wroship","Notes":"Religious","Shape_Length":113.34374608601003,"Shape_Area":801.66669399814361}},{"type":"Feature","id":126,"geometry":{"type":"Polygon","coordinates":[[[-77.434540008880973,37.550359807237662],[-77.434329185063575,37.550237870578655],[-77.434222889212634,37.550174406261547],[-77.434180163541086,37.550209504293257],[-77.434495203609544,37.550403361846278],[-77.434540008880973,37.550359807237662]]]},"properties":{"OBJECTID":126,"Address":"903 N 2nd Street","ID":null,"Address_1":"903 N 2nd Street","Name":null,"Type__Business_or_Residences_":"Residential","Business_Type":"Lancaster Earl W","Identification":"Residential","ID2level":"Residential","Notes":null,"Shape_Length":102.99741117396769,"Shape_Area":320.73883037643702}},{"type":"Feature","id":127,"geometry":{"type":"Polygon","coordinates":[[[-77.434495203609544,37.550403361846278],[-77.434180163541086,37.550209504293257],[-77.434137436971241,37.550251132484604],[-77.43445093283573,37.550449478923824],[-77.434495203609544,37.550403361846278]]]},"properties":{"OBJECTID":127,"Address":"907 N 2nd Street","ID":null,"Address_1":"907 N 2nd Street","Name":null,"Type__Business_or_Residences_":"Residential","Business_Type":"Harvey Eliza ","Identification":"Residential","ID2level":"Residential","Notes":null,"Shape_Length":104.71545945875232,"Shape_Area":348.83727050586106}},{"type":"Feature","id":128,"geometry":{"type":"Polygon","coordinates":[[[-77.43445093283573,37.550449478923824],[-77.434137436971241,37.550251132484604],[-77.434030879710548,37.550359692573345],[-77.434346434513671,37.550560895352227],[-77.43445093283573,37.550449478923824]]]},"properties":{"OBJECTID":128,"Address":"911 N 2nd Street","ID":null,"Address_1":"911 N 2nd Street","Name":null,"Type__Business_or_Residences_":"Residential","Business_Type":"Henderson Charlie","Identification":"Residential","ID2level":"Residential","Notes":null,"Shape_Length":128.53632360649726,"Shape_Area":870.23430274417592}},{"type":"Feature","id":129,"geometry":{"type":"Polygon","coordinates":[[[-77.434346434513671,37.550560895352227],[-77.434030879710548,37.550359692573345],[-77.433980946855485,37.550409891296326],[-77.43429753112791,37.550616399815361],[-77.434346434513671,37.550560895352227]]]},"properties":{"OBJECTID":129,"Address":"913 N 2nd Street","ID":null,"Address_1":"913 N 2nd Street","Name":null,"Type__Business_or_Residences_":"Residential","Business_Type":"Jones Julia H, Hunt Alphonson","Identification":"Residential","ID2level":"Residential","Notes":null,"Shape_Length":109.19845255215463,"Shape_Area":418.56518840223055}},{"type":"Feature","id":130,"geometry":{"type":"Polygon","coordinates":[[[-77.43429753112791,37.550616399815361],[-77.433980946855485,37.550409891296326],[-77.433867182411262,37.550522124676142],[-77.434184281418354,37.550726999816476],[-77.43429753112791,37.550616399815361]]]},"properties":{"OBJECTID":130,"Address":"915 N 2nd Street","ID":null,"Address_1":"915 N 2nd Street","Name":null,"Type__Business_or_Residences_":"Residential","Business_Type":"Apartments","Identification":"Residential","ID2level":"Residential","Notes":"4 residents","Shape_Length":131.39280398684031,"Shape_Area":916.70629068805749}},{"type":"Feature","id":131,"geometry":{"type":"Polygon","coordinates":[[[-77.434116031914641,37.550804339383888],[-77.433768128778141,37.550600026380494],[-77.433636932525857,37.550729115041491],[-77.433984249960773,37.550942714713429],[-77.434116031914641,37.550804339383888]]]},"properties":{"OBJECTID":131,"Address":"1005 N 2nd Street","ID":null,"Address_1":"1005 N 2nd Street","Name":null,"Type__Business_or_Residences_":"Commercial","Business_Type":"S & R Food Store ","Identification":"Commercial","ID2level":"Shop","Notes":null,"Shape_Length":144.75101140926722,"Shape_Area":1156.0605056594593}},{"type":"Feature","id":132,"geometry":{"type":"Polygon","coordinates":[[[-77.433984249960773,37.550942714713429],[-77.433636932525857,37.550729115041491],[-77.433594177209898,37.550767655570439],[-77.433943837451096,37.550985434289494],[-77.433984249960773,37.550942714713429]]]},"properties":{"OBJECTID":132,"Address":"1009 N 2nd Street","ID":null,"Address_1":"1009 N 2nd Street","Name":null,"Type__Business_or_Residences_":"Residential","Business_Type":"Chiles William H ","Identification":"Residential","ID2level":"Residential","Notes":null,"Shape_Length":113.13536218201347,"Shape_Area":361.50636505171599}},{"type":"Feature","id":133,"geometry":{"type":"Polygon","coordinates":[[[-77.433594177209898,37.550767655570439],[-77.433550835294085,37.550808054199386],[-77.433899909833698,37.551025832088193],[-77.433943837451096,37.550985434289494],[-77.433594177209898,37.550767655570439]]]},"properties":{"OBJECTID":133,"Address":"1011 N 2nd Street","ID":null,"Address_1":"1011 N 2nd Street","Name":null,"Type__Business_or_Residences_":"Commercial","Business_Type":"Hang Down Pool Room ","Identification":"Commercial","ID2level":"Community & Athletic Center","Notes":"Social Use?","Shape_Length":113.88203697183265,"Shape_Area":369.13739571006795}},{"type":"Feature","id":134,"geometry":{"type":"Polygon","coordinates":[[[-77.433899909833698,37.551025832088193],[-77.433550835294085,37.550808054199386],[-77.433504703210971,37.550851532341149],[-77.433856715241575,37.551078071509508],[-77.433899909833698,37.551025832088193]]]},"properties":{"OBJECTID":134,"Address":"1013 N 2nd Street","ID":null,"Address_1":"1013 N 2nd Street","Name":null,"Type__Business_or_Residences_":"Residential","Business_Type":"Thompson Arth L Jr","Identification":"Residential","ID2level":"Residential","Notes":null,"Shape_Length":116.66641483188644,"Shape_Area":417.3169164671084}},{"type":"Feature","id":135,"geometry":{"type":"Polygon","coordinates":[[[-77.433807623209617,37.551133403948924],[-77.432293855056358,37.550217325694476],[-77.432166803630764,37.550150289664415],[-77.432084271812371,37.550165532932922],[-77.431985327773702,37.550193043880363],[-77.430284045288033,37.55197627829785],[-77.432038897009065,37.552998908478536],[-77.433807623209617,37.551133403948924]]]},"properties":{"OBJECTID":135,"Address":"209 Hospital Street","ID":null,"Address_1":"209 Hospital Street","Name":null,"Type__Business_or_Residences_":"Business","Business_Type":"Shockoe Hill Cemetary","Identification":"Institutional","ID2level":"Funeral","Notes":null,"Shape_Length":1134.1659566706376,"Shape_Area":79685.430853965066}},{"type":"Feature","id":136,"geometry":{"type":"Polygon","coordinates":[[[-77.432905676935107,37.552419963990431],[-77.433278664627608,37.552534246845333],[-77.433365069981534,37.552403230588261],[-77.433028757807151,37.552271369452718],[-77.432905676935107,37.552419963990431]]]},"properties":{"OBJECTID":136,"Address":"1110 N 2nd Street","ID":null,"Address_1":"1110 N 2nd Street","Name":null,"Type__Business_or_Residences_":"No data available","Business_Type":"No data available","Identification":"No data available","ID2level":"No data available","Notes":null,"Shape_Length":132.00057347713499,"Shape_Area":976.50088707070449}},{"type":"Feature","id":137,"geometry":{"type":"Polygon","coordinates":[[[-77.433028757807151,37.552271369452718],[-77.433365069981534,37.552403230588261],[-77.433408150487608,37.552344359549437],[-77.433076383788574,37.552219089561191],[-77.433028757807151,37.552271369452718]]]},"properties":{"OBJECTID":137,"Address":"1108 N 2nd Street","ID":null,"Address_1":"1108 N 2nd Street","Name":null,"Type__Business_or_Residences_":"No data available","Business_Type":"No data available","Identification":"No data available","ID2level":"No data available","Notes":null,"Shape_Length":101.28497836163871,"Shape_Area":381.31668661075537}},{"type":"Feature","id":138,"geometry":{"type":"Polygon","coordinates":[[[-77.433524066396927,37.552388128077069],[-77.433573157530574,37.552335267127219],[-77.433124009769983,37.55217378048215],[-77.433076383788574,37.552219089561191],[-77.433524066396927,37.552388128077069]]]},"properties":{"OBJECTID":138,"Address":"1106b N 2nd Street","ID":null,"Address_1":"1106b N 2nd Street","Name":null,"Type__Business_or_Residences_":"Residential","Business_Type":"Bullock Blanche A","Identification":"Residential","ID2level":"Residential","Notes":null,"Shape_Length":127.59831265714716,"Shape_Area":468.95921427102553}},{"type":"Feature","id":139,"geometry":{"type":"Polygon","coordinates":[[[-77.433124009769983,37.55217378048215],[-77.433573157530574,37.552335267127219],[-77.433642764388679,37.552264979753453],[-77.433189953298367,37.552106978383684],[-77.433124009769983,37.55217378048215]]]},"properties":{"OBJECTID":139,"Address":"1106a N 2nd Street","ID":null,"Address_1":"1106a N 2nd Street","Name":null,"Type__Business_or_Residences_":"Residential","Business_Type":"Sperrow Fred","Identification":"Residential","ID2level":"Residential","Notes":null,"Shape_Length":134.43182960586199,"Shape_Area":652.41099883178595}},{"type":"Feature","id":140,"geometry":{"type":"Polygon","coordinates":[[[-77.433189953298367,37.552106978383684],[-77.433642764388679,37.552264979753453],[-77.433675736152864,37.552230126968325],[-77.433218528707542,37.552066897380712],[-77.433189953298367,37.552106978383684]]]},"properties":{"OBJECTID":140,"Address":"1104 N 2nd Street","ID":null,"Address_1":"1104 N 2nd Street","Name":null,"Type__Business_or_Residences_":"Residential","Business_Type":"Apartments","Identification":"Residential","ID2level":"Residential","Notes":"4 residents","Shape_Length":123.47356720308601,"Shape_Area":343.72768826857742}},{"type":"Feature","id":141,"geometry":{"type":"Polygon","coordinates":[[[-77.433218528707542,37.552066897380712],[-77.433675736152864,37.552230126968325],[-77.433755600873198,37.552161582207908],[-77.433288135565661,37.552001837902743],[-77.433218528707542,37.552066897380712]]]},"properties":{"OBJECTID":141,"Address":"1102b N 2nd Street","ID":null,"Address_1":"1102b N 2nd Street","Name":null,"Type__Business_or_Residences_":"Residential","Business_Type":"Mallory Emma E","Identification":"Residential","ID2level":"Residential","Notes":null,"Shape_Length":137.56620695257703,"Shape_Area":671.40074643642743}},{"type":"Feature","id":142,"geometry":{"type":"Polygon","coordinates":[[[-77.433288135565661,37.552001837902743],[-77.433755600873198,37.552161582207908],[-77.43397687838555,37.551916586483905],[-77.433826351286655,37.551870486694433],[-77.433706304923675,37.552021425118873],[-77.433421304518305,37.551859374454487],[-77.433288135565661,37.552001837902743]]]},"properties":{"OBJECTID":142,"Address":"1102a N 2nd Street","ID":null,"Address_1":"1102a N 2nd Street","Name":null,"Type__Business_or_Residences_":"Residential","Business_Type":"Smith Shirley R","Identification":"Residential","ID2level":"Residential","Notes":null,"Shape_Length":205.93513395864352,"Shape_Area":1494.0721687985927}},{"type":"Feature","id":143,"geometry":{"type":"Polygon","coordinates":[[[-77.433421304518305,37.551859374454487],[-77.433706304923675,37.552021425118873],[-77.433826351286655,37.551870486694433],[-77.433499919682092,37.551772273323138],[-77.433421304518305,37.551859374454487]]]},"properties":{"OBJECTID":143,"Address":"1100 N 2nd Street","ID":null,"Address_1":"1100 N 2nd Street","Name":null,"Type__Business_or_Residences_":"Residential","Business_Type":"Apartments","Identification":"Residential","ID2level":"Residential","Notes":"4 residents","Shape_Length":118.00286272987259,"Shape_Area":770.78582546307234}},{"type":"Feature","id":144,"geometry":{"type":"Polygon","coordinates":[[[-77.434021869608259,37.551807854177149],[-77.434052370107082,37.551774911975905],[-77.433702274182991,37.551559735053708],[-77.433582482043221,37.55168800018776],[-77.434021869608259,37.551807854177149]]]},"properties":{"OBJECTID":144,"Address":"1024 N 2nd Street","ID":null,"Address_1":"1024 N 2nd Street","Name":null,"Type__Business_or_Residences_":"Residential","Business_Type":"Dandrige Eliz","Identification":"Residential","ID2level":"Residential","Notes":null,"Shape_Length":129.18638381570324,"Shape_Area":694.09080001693758}},{"type":"Feature","id":145,"geometry":{"type":"Polygon","coordinates":[[[-77.434052370107082,37.551774911975905],[-77.434107182610774,37.551717438464891],[-77.433742057871982,37.551522587264614],[-77.433702274182991,37.551559735053708],[-77.434052370107082,37.551774911975905]]]},"properties":{"OBJECTID":145,"Address":"1012 1/2 N 2nd Street","ID":null,"Address_1":"1012 1/2 N 2nd Street","Name":null,"Type__Business_or_Residences_":"Residential","Business_Type":"Jones Aretha B","Identification":"Residential","ID2level":"Residential","Notes":null,"Shape_Length":115.26790594500289,"Shape_Area":416.01786677608277}},{"type":"Feature","id":146,"geometry":{"type":"Polygon","coordinates":[[[-77.434107182610774,37.551717438464891],[-77.434168043471288,37.551651987690533],[-77.433802528863652,37.551455286761659],[-77.433742057871982,37.551522587264614],[-77.434107182610774,37.551717438464891]]]},"properties":{"OBJECTID":146,"Address":"1012 N 2nd Street","ID":null,"Address_1":"1012 N 2nd Street","Name":null,"Type__Business_or_Residences_":"Vacant","Business_Type":"Vacant","Identification":"Vacant","ID2level":"Vacant","Notes":null,"Shape_Length":121.19296518035699,"Shape_Area":564.66009798814343}},{"type":"Feature","id":147,"geometry":{"type":"Polygon","coordinates":[[[-77.434168043471288,37.551651987690533],[-77.434223209911195,37.551592551292636],[-77.433871576071311,37.551384158885156],[-77.433802528863652,37.551455286761659],[-77.434168043471288,37.551651987690533]]]},"properties":{"OBJECTID":147,"Address":"1010 N 2nd Street","ID":null,"Address_1":"1010 N 2nd Street","Name":null,"Type__Business_or_Residences_":"Residential","Business_Type":"White Mabel L ","Identification":"Residential","ID2level":"Residential","Notes":null,"Shape_Length":121.01288638315604,"Shape_Area":562.51440031171239}},{"type":"Feature","id":148,"geometry":{"type":"Polygon","coordinates":[[[-77.434223209911195,37.551592551292636],[-77.434271303914869,37.551542086295228],[-77.43391286264179,37.551341796345383],[-77.433871576071311,37.551384158885156],[-77.434223209911195,37.551592551292636]]]},"properties":{"OBJECTID":148,"Address":"1008 N 2nd Street","ID":null,"Address_1":"1008 N 2nd Street","Name":null,"Type__Business_or_Residences_":"Vacant","Business_Type":"Vacant","Identification":"Vacant","ID2level":"Vacant","Notes":null,"Shape_Length":114.08586647930292,"Shape_Area":400.31034243942941}},{"type":"Feature","id":149,"geometry":{"type":"Polygon","coordinates":[[[-77.434271303914869,37.551542086295228],[-77.434347210658061,37.551460207282389],[-77.433999149418085,37.551256378230889],[-77.43391286264179,37.551341796345383],[-77.434271303914869,37.551542086295228]]]},"properties":{"OBJECTID":149,"Address":"1004 N 2nd Street","ID":null,"Address_1":"1004 N 2nd Street","Name":null,"Type__Business_or_Residences_":"Residential","Business_Type":"Hunter Robt","Identification":"Residential","ID2level":"Residential","Notes":null,"Shape_Length":126.62046121328135,"Shape_Area":717.99569791954207}},{"type":"Feature","id":150,"geometry":{"type":"Polygon","coordinates":[[[-77.433999149418085,37.551256378230889],[-77.434347210658061,37.551460207282389],[-77.434392386933709,37.551419175869682],[-77.434037623363395,37.551218661248932],[-77.433999149418085,37.551256378230889]]]},"properties":{"OBJECTID":150,"Address":"1002 N 2nd Street","ID":null,"Address_1":"1002 N 2nd Street","Name":null,"Type__Business_or_Residences_":"Residential","Business_Type":"Felder Margaret","Identification":"Residential","ID2level":"Residential","Notes":null,"Shape_Length":111.1291258568253,"Shape_Area":348.44342927075934}},{"type":"Feature","id":151,"geometry":{"type":"Polygon","coordinates":[[[-77.434037623363395,37.551218661248932],[-77.434392386933709,37.551419175869682],[-77.434436268737031,37.551364150596712],[-77.434308521117103,37.551276826682731],[-77.434449345512618,37.551118926486112],[-77.434199886053165,37.551049546012457],[-77.434037623363395,37.551218661248932]]]},"properties":{"OBJECTID":151,"Address":"1000 N 2nd Street","ID":null,"Address_1":"1000 N 2nd Street","Name":null,"Type__Business_or_Residences_":"Residential","Business_Type":"Williams Vennellle E","Identification":"Residential","ID2level":"Residential","Notes":null,"Shape_Length":162.83568286795455,"Shape_Area":1164.1347700783554}},{"type":"Feature","id":152,"geometry":{"type":"Polygon","coordinates":[[[-77.434285620365557,37.550969739657248],[-77.434660641843863,37.551090154585751],[-77.434771272964355,37.55100467493412],[-77.434359687359049,37.550875340330691],[-77.434285620365557,37.550969739657248]]]},"properties":{"OBJECTID":152,"Address":"924 N 2nd Street","ID":null,"Address_1":"924 N 2nd Street","Name":null,"Type__Business_or_Residences_":"Institutional","Business_Type":"Mt. Olive Congregation Church of God","Identification":"Institutional","ID2level":"Worship","Notes":null,"Shape_Length":127.13275175570971,"Shape_Area":733.15725459198279}},{"type":"Feature","id":153,"geometry":{"type":"Polygon","coordinates":[[[-77.434359687359049,37.550875340330691],[-77.434771272964355,37.55100467493412],[-77.434838776866386,37.550943723893631],[-77.434427190362754,37.550812159298275],[-77.434359687359049,37.550875340330691]]]},"properties":{"OBJECTID":153,"Address":"912b N 2nd Street","ID":null,"Address_1":"912b N 2nd Street","Name":null,"Type__Business_or_Residences_":"Residential","Business_Type":"Bennett Willie M","Identification":"Residential","ID2level":"Residential","Notes":null,"Shape_Length":121.70182660514104,"Shape_Area":536.92729299156224}},{"type":"Feature","id":154,"geometry":{"type":"Polygon","coordinates":[[[-77.4344675058544,37.55075938483089],[-77.434427190362754,37.550812159298275],[-77.434838776866386,37.550943723893631],[-77.434881253704575,37.550900914557076],[-77.434926906985638,37.550847094649022],[-77.434528446664956,37.550689514030751],[-77.4344675058544,37.55075938483089]]]},"properties":{"OBJECTID":154,"Address":"912a N 2nd Street","ID":null,"Address_1":"912a N 2nd Street","Name":null,"Type__Business_or_Residences_":"Vacant","Business_Type":"Vacant","Identification":"Vacant","ID2level":"Vacant","Notes":null,"Shape_Length":136.31567766965622,"Shape_Area":913.77476249034555}},{"type":"Feature","id":155,"geometry":{"type":"Polygon","coordinates":[[[-77.434528446664956,37.550689514030751],[-77.434926906985638,37.550847094649022],[-77.434998482950846,37.550768521601512],[-77.434592200100667,37.550618156807893],[-77.434528446664956,37.550689514030751]]]},"properties":{"OBJECTID":155,"Address":"912 N 2nd Street","ID":null,"Address_1":"912 N 2nd Street","Name":null,"Type__Business_or_Residences_":"Institutional","Business_Type":"Royal Knights Club","Identification":"Institutional","ID2level":"Community & Athletic Center","Notes":null,"Shape_Length":125.36813637042758,"Shape_Area":634.31997615952548}},{"type":"Feature","id":156,"geometry":{"type":"Polygon","coordinates":[[[-77.434592200100667,37.550618156807893],[-77.434998482950846,37.550768521601512],[-77.435027225446674,37.55073782877087],[-77.434618451568227,37.550592140921609],[-77.434592200100667,37.550618156807893]]]},"properties":{"OBJECTID":156,"Address":"908 N 2nd Street","ID":null,"Address_1":"908 N 2nd Street","Name":null,"Type__Business_or_Residences_":"Residential","Business_Type":"Pride Linwood J ","Identification":"Residential","ID2level":"Residential","Notes":null,"Shape_Length":109.84890476469559,"Shape_Area":244.23295249646776}},{"type":"Feature","id":157,"geometry":{"type":"Polygon","coordinates":[[[-77.434618451568227,37.550592140921609],[-77.435027225446674,37.55073782877087],[-77.435060040005695,37.5507043797245],[-77.43464807531133,37.550564217758506],[-77.434618451568227,37.550592140921609]]]},"properties":{"OBJECTID":157,"Address":"906 N 2nd Street","ID":null,"Address_1":"906 N 2nd Street","Name":null,"Type__Business_or_Residences_":"Residential","Business_Type":"Apartments ","Identification":"Residential","ID2level":"Residential","Notes":"5 residents with 1 no return ","Shape_Length":110.86821827358011,"Shape_Area":266.57102192351022}},{"type":"Feature","id":158,"geometry":{"type":"Polygon","coordinates":[[[-77.43464807531133,37.550564217758506],[-77.434830393788147,37.550626247377046],[-77.434866903117907,37.550590653851572],[-77.434693456402883,37.550518552998312],[-77.43464807531133,37.550564217758506]]]},"properties":{"OBJECTID":158,"Address":"902 N 2nd Street","ID":null,"Address_1":"902 N 2nd Street","Name":null,"Type__Business_or_Residences_":"Residential","Business_Type":"Archer Josephine A","Identification":"Residential","ID2level":"Residential","Notes":null,"Shape_Length":58.491060902967789,"Shape_Area":155.8854092081902}},{"type":"Feature","id":159,"geometry":{"type":"Polygon","coordinates":[[[-77.434866903117907,37.550590653851572],[-77.435050664289065,37.550379554418193],[-77.434885654551167,37.550316372965504],[-77.434693456402883,37.550518552998312],[-77.434866903117907,37.550590653851572]]]},"properties":{"OBJECTID":159,"Address":"900 N 2nd Street","ID":null,"Address_1":"900 N 2nd Street","Name":null,"Type__Business_or_Residences_":"Residential","Business_Type":"Tyson Thomas","Identification":"Residential","ID2level":"Residential","Notes":null,"Shape_Length":113.76186464731961,"Shape_Area":745.32577455109572}}]}