{"type":"FeatureCollection","features":[{"type":"Feature","id":1,"geometry":{"type":"Point","coordinates":[-77.437876554865454,37.547163833713526]},"properties":{"OBJECTID":1,"Era":"2000 to Present","Name":"Hippodrome Theater","Address":"528 N 2nd Street","WhyShort":"After being closed for many years, 2011 renovations led to the theater reopening.","WhyLong":"Having originally closed in 1945 due to a fire, the Hippodrome underwent renovations and reopened in 2011. The Hippodrome serves a similar purpose to what it did when it originally opened, it is a place where people go for concerts, parties, and private events. The theater serves as a way to educate young people about the history of Jackson Ward and the role African Americans played in building the United States.","Image1":"images/image_Hippodrome_Current.jpg","Image1Cite":"https://hippodromerichmond.com/about","Image2":null,"Image2Cite":null,"Image3":null,"Image3Cite":null}},{"type":"Feature","id":2,"geometry":{"type":"Point","coordinates":[-77.435112790875806,37.54984984999578]},"properties":{"OBJECTID":2,"Era":"2000 to Present","Name":"I-95","Address":"  ","WhyShort":"Built in the middle of Jackson Ward cutting it in half and disrupting many homes and businesses.","WhyLong":"In the 1950s, I-95 bisected Second Street and Jackson Ward as a whole. A block wide path was carved through the ward displacing an estimated 1,000 households and destroying hundreds of historic homes, buildings, and neighborhood structures. With construction ending in 1958, disruptions to the neighborhood were far from over. Today, about 150,000 cars per day drive along this portion of I-95 creating constant noise pollution. Along with this, the Northern section of Jackson Ward continues to be cut off from Historic Jackson Ward with less access to businesses and services.","Image1":"images/image_I-95_Current.jpg","Image1Cite":"https://drewsisk.com/workshop/jackson-ward-displacement-and-buried-history/","Image2":null,"Image2Cite":null,"Image3":null,"Image3Cite":null}},{"type":"Feature","id":3,"geometry":{"type":"Point","coordinates":[-77.437257977655747,37.547811221135731]},"properties":{"OBJECTID":3,"Era":"2000 to Present","Name":"Maggie Walker Historic Site","Address":"600 N 2nd Street","WhyShort":"A national park devoted to perserving the legacy of Maggie Walker.","WhyLong":"Opening in 1975, the Maggie L. Walker National Historic Site is the country’s first national park devoted to an African American woman. Maggie Walker was the first American woman to establish and head a bank. Along with this, Walker was the founder and president of the Richmond Council of Colored Women and worked to improve health care for African Americans. The historic site is preserved and furnished exactly how Maggie Walker left it.","Image1":"images/image_MaggieWalkerHouse_Current.jpg","Image1Cite":"https://www.dhr.virginia.gov/historic-registers/127-0275/","Image2":null,"Image2Cite":null,"Image3":null,"Image3Cite":null}},{"type":"Feature","id":4,"geometry":{"type":"Point","coordinates":[-77.439573555980488,37.546454827850482]},"properties":{"OBJECTID":4,"Era":"2000 to Present","Name":"Mama J's Kitchen & Mural","Address":"451 N 1st Street","WhyShort":"Serving the community since 2009, Mama J's Kitchen has become a Jackson Ward staple.","WhyLong":"Velma Johnson founded Mama J’s Kitchen in 2009. She was taught how to cook from her mom but her dad was also a culinary expert himself as he was a head cook for the Life of Virginia Insurance Company. She was a deputy sheriff for 17 years of her life but catering was calling her name and thus she resigned from her job to do full time catering. Mama J’s Kitchen was founded and opened in 2009 in a building on North 1st street in historic Jackson Ward. It’s been a staple to the Jackson Ward community ever since as Mama J’s continues to treat her customers like family. On the corner of 1st and Clay street resides a mural of Black culinary icons of Richmond Virginia. The mural includes Velma “Mama J\" Johnson, John Dabney, Edna Lewis, Neverett Eggleston, and the building of Miller’s hotel.","Image1":"images/image_MamaJFront_Current.jpg","Image1Cite":"https://m.yelp.com/biz_photos/mama-js-kitchen-richmond?select=ZXJrmApdeDT6hNRDHgFelw&tab=outside","Image2":"images/image_MamaJMural_Current.jpeg","Image2Cite":"https://richmondmagazine.com/restaurants-in-richmond/food-news/mama-js-market/","Image3":null,"Image3Cite":null}},{"type":"Feature","id":5,"geometry":{"type":"Point","coordinates":[-77.438144949014472,37.54645937833768]},"properties":{"OBJECTID":5,"Era":"2000 to Present","Name":"Jackson Center","Address":"501 N 2nd Street","WhyShort":"Parts of historic East Clay Street were cleared to build this center.","WhyLong":"Today, the Jackson Center is home to Virginia Commonwealth University's MOTIVATE clinic and adult outpatient psychiatry along with the Historic Jackson Ward Association. For this building’s construction, many historic buildings off East Clay Street had to be destroyed.","Image1":"images/image_JacksonCenter_Current.jpg","Image1Cite":"https://rehabs.org/vcu-health-system-department-of-psychiatry/","Image2":null,"Image2Cite":null,"Image3":null,"Image3Cite":null}},{"type":"Feature","id":6,"geometry":{"type":"Point","coordinates":[-77.437971530147195,37.547061360690783]},"properties":{"OBJECTID":6,"Era":"2000 to Present","Name":"The Speakeasy Grill","Address":"526 N 2nd Street","WhyShort":"Is in the restored Taylor Mansion and serves as a place of food and entertainment for the community.","WhyLong":"The Speakeasy Grill today is housed in W.L. Taylor’s Old Mansion. The restaurant highlights Southern cuisine and it is a reference to the Prohibition era when alcohol was banned. Thus, at this time mansions would be used as speakies to freely drink alcohol. The actual speakeasy is towards the back of the mansion which has dark lighting and high ceilings and all sorts of entertainment can be going on at any time from Jazz to spoken word. ","Image1":"images/image_SpeakeasyGrill_Current.jpg","Image1Cite":"https://www.visitrichmondva.com/listing/the-speakeasy-grill/4439/","Image2":null,"Image2Cite":null,"Image3":null,"Image3Cite":null}},{"type":"Feature","id":7,"geometry":{"type":"Point","coordinates":[-77.436695393336038,37.548017068789534]},"properties":{"OBJECTID":7,"Era":"2000 to Present","Name":"Mocha Temple No. 7 Shrine Club & Mural","Address":"613 N 2nd Street","WhyShort":"Fraternal organization that hosts social activities and raise money for children's charities.","WhyLong":"The Mocha Temple No. 7 Shrine Club houses the fraternal organization, the Mocha Shriners, who primarily raise money for children charities and serve communities. They also hold many social events and activities like parades. On the side of the Mocha Temple No 7. Shrine Club is a mural of the first all-Black professional fire crew in the city of Richmond. On July 1st, 1950 10 black men were appointed to Engine Company #9. These men were Charles L. Belle, William E. Brown, Douglas P. Evans, Harvey S. Hicks II, Warren W. Kersey, Bernard C. Lewis, Farrar Lucas, Arthur L. Page, Arthur C. St. John and Linwood M. Wooldridge. It was very important to this community to have this representation because imagine your livelihood, your home, on fire and a firefighter turning away because of the color of your skin. They gave the community pride. ","Image1":"images/image_MochaTempleMural_Current.jpg","Image1Cite":"https://www.wtvr.com/news/local-news/mural-honoring-first-ten-black-firefighters-unveiled-in-jackson-ward","Image2":null,"Image2Cite":null,"Image3":null,"Image3Cite":null}}]}