{"type":"FeatureCollection","features":[{"type":"Feature","id":1,"geometry":{"type":"Point","coordinates":[-77.435225220423504,37.549802157860142]},"properties":{"OBJECTID":1,"ID":null,"Era":"1965 to 1999","Name":"I-95","Address":"  ","WhyShort":"Built in the middle of Jackson Ward cutting it in half and disrupting many homes and businesses. Displaced thousands of people","WhyLong":"In the 1950s, I-95 bisected Second Street and Jackson Ward as a whole. A block wide path was carved through the ward displacing an estimated 1,000 households and destroying hundreds of historic homes, buildings, and neighborhood structures. With construction ending in 1958, disruptions to the neighborhood were far from over. Today, about 150,000 cars per day drive along this portion of I-95 creating constant noise pollution. Along with this, the Northern section of Jackson Ward continues to be cut off from Historic Jackson Ward with less access to businesses and services.\r\n","Image1":"images/image_I-95_51-64.jpg","Image1Cite":"https://encyclopediavirginia.org/construction-of-the-richmond-petersburg-turnpike-i-95/","Image2":null,"Image2Cite":null,"Image3":null,"Image3Cite":null}},{"type":"Feature","id":2,"geometry":{"type":"Point","coordinates":[-77.437384208021172,37.547749687732278]},"properties":{"OBJECTID":2,"ID":null,"Era":"1965 to 1999","Name":"Maggie Walker Historic Site","Address":"600 N 2nd Street","WhyShort":"First Black woman to charter and serve as President of a bank in the United States","WhyLong":"Opening in 1978, the Maggie L. Walker National Historic Site is the country’s first national park devoted to an African American woman. Maggie Walker was the first American woman to establish and head a bank.Along with this, Walker was the founder and president of the Richmond Council of Colored Women and worked to improve health care for African Americans. The historic site is preserved and furnished exactly how Maggie Walker left it.\r\n","Image1":"images/image_MaggieWalkerHouse_1976.jpg","Image1Cite":"https://artsandculture.google.com/story/in-her-footsteps-a-virtual-tour-of-maggie-l-walker-s-home-maggie-l-walker-national-historic-site/8AXR_Z9D-zGYLw?hl=en","Image2":null,"Image2Cite":null,"Image3":null,"Image3Cite":null}},{"type":"Feature","id":3,"geometry":{"type":"Point","coordinates":[-77.43799961058464,37.54652318341838]},"properties":{"OBJECTID":3,"ID":null,"Era":"1965 to 1999","Name":"Giles B. Jackson Law Office","Address":"511 N 2nd Street","WhyShort":"During the 1970s, Giles B Jackson's old office helped for the push for Jackson Ward's National Historic District Status ","WhyLong":"Giles B. Jackson was born September 10, 1853 in Goochland County Virginia. Throughout his life, Jackson became an attorney, entrepreneur, real estate developer, newspaper publisher, and civil rights activist.  On November 30 1887 he became the first African American certified to practice law before the Virginia Supreme Court of Appeals. Jackson helped establish the Savings Bank of the Grand Fountain of the United Order of the True Reformers. In 1901 President Theodore Roosevelt commissioned Jackson as an honorary colonel. Jackson practiced law out of an office located on Second Street which helped the neighborhood get a National Historic District status. \r\n","Image1":"images/image_GilesBJackson_1976.jpg","Image1Cite":"https://encyclopediavirginia.org/entries/jackson-giles-b-1853-1924/","Image2":null,"Image2Cite":null,"Image3":null,"Image3Cite":null}},{"type":"Feature","id":4,"geometry":{"type":"Point","coordinates":[-77.43747517142684,37.547157391583596]},"properties":{"OBJECTID":4,"ID":null,"Era":"1965 to 1999","Name":"Slaughter's Hotel","Address":"529 N 2nd Street","WhyShort":"Despite I-95 and all that happened, Slaughter's Hotel remained a vital part of the community through the 1970s.","WhyLong":"Slaughter’s Hotel was first opened by Richard Slaughter around 1924. By 1931 the hotel moved to a larger location across the street. Slaughter’s was well known for its dedication to high quality food and accommodations for Black travelers at a time when options were limited. From the 1930s-1940s the hotel was a prominent establishment that attracted lots of notable guests such as Oliver Hill. Gertrude Taylor took over hotel management in 1945 after Richard Slaughter passed away. Under Taylor’s management the hotel thrived as a gathering place for organizations such as the NAACP and the Richmond Crusade of Voters. Along with this, the hotel also served as a meeting place for political, social, and community leaders. Through the 1970s the hotel continued to be a staple with its club sandwich becoming a local legend. In the early 1990s the hotel was demolished to make way for the Jackson Center.\r\n","Image1":"images/image_SlaughtersHotel_1976.jpg","Image1Cite":"https://www.facebook.com/100066962109971/posts/slaughters-hotel529-north-2nd-streetrichmond-va/1594940770755762/","Image2":null,"Image2Cite":null,"Image3":null,"Image3Cite":null}},{"type":"Feature","id":5,"geometry":{"type":"Point","coordinates":[-77.436618935925566,37.547987623353102]},"properties":{"OBJECTID":5,"ID":null,"Era":"1965 to 1999","Name":"Metropolitan Business League ","Address":"615 N 2nd Street","WhyShort":"Created in 1968 to support and connect African American owned businesses within the state of Virginia.","WhyLong":"In 1968, four Richmond locals teamed up to create the Metropolitan Business League. The goal of the league was to support African American owned businesses at a time when they were not able to join membership organizations such as the Chamber. By providing capital, education and training, and procurement opportunities, the league helped these businesses grow. Over the years, the league has expanded to support and connect small, women owned, or minority owned businesses within the state. ","Image1":"images/image_MBL_1965_1999.jpeg","Image1Cite":"https://www.flickr.com/photos/vcucommons/16165301384/in/photostream/","Image2":null,"Image2Cite":null,"Image3":null,"Image3Cite":null}},{"type":"Feature","id":6,"geometry":{"type":"Point","coordinates":[-77.436690947573695,37.547905550271665]},"properties":{"OBJECTID":6,"ID":null,"Era":"1965 to 1999","Name":"Mocha Temple-Shriners Club No 7 ","Address":"613 N 2nd Street","WhyShort":"Fraternal organization that hosts social activities and raise money for children's charities.","WhyLong":"The Mocha Temple No. 7 Shrine Club houses the fraternal organization, the Mocha Shriners, who primarily support programs, health initiatives, and mentorship for youth. They also hold many social events and activities like parades. On the side of the Mocha Temple No 7. Shriner’s Club is a mural of the first all-Black professional fire crew in the city of Richmond. On July 1st, 1950 10 black men were appointed to Engine Company #9. These men were Charles L. Belle, William E. Brown, Douglas P. Evans, Harvey S. Hicks II, Warren W. Kersey, Bernard C. Lewis, Farrar Lucas, Arthur L. Page, Arthur C. St. John and Linwood M. Wooldridge. This representation created a sense of pride, admiration, and inspiration within the community.","Image1":"images/image_MochaTempleMural_Current.jpg","Image1Cite":"https://www.wtvr.com/news/local-news/mural-honoring-first-ten-black-firefighters-unveiled-in-jackson-ward ","Image2":null,"Image2Cite":null,"Image3":null,"Image3Cite":null}}]}